X,Y,stntype,name,address1,address2,city,state,zipcode,Full_Address,Latitude,Longitude,code,stationnam
-8478455.55,4794767.297,TRAIN,,18 East Bel Air Avenue,,Aberdeen,MD,21001, 18 East Bel Air Avenue  Aberdeen MD 21001 ,39.5084117,-76.163203,ABE,"Aberdeen, MD"
-11871999.39,4175039.273,TRAIN,,320 1st Street SW,,Albuquerque,NM,87102, 320 1st Street SW  Albuquerque NM 87102 ,35.0819655,-106.6476898,ABQ,"Albuquerque, NM"
-13560499.23,4581927.239,TRAIN,,100 I Street,,Antioch,CA,94509, 100 I Street  Antioch CA 94509 ,38.0178083,-121.8161829,ACA,"Antioch-Pittsburg, CA"
-10088263.09,4521971.944,TRAIN,,13700 Highway 21,,Arcadia,MO,63621, 13700 Highway 21  Arcadia MO 63621 ,37.5922944,-90.6243485,ACD,"Arcadia, MO"
-10811963.17,4051984.243,TRAIN,,251 East Main Street,,Ardmore,OK,73401, 251 East Main Street  Ardmore OK 73401 ,34.1728417,-97.1252961,ADM,"Ardmore, OK"
-9199398.968,4647582.889,TRAIN,,99 15th Street,,Ashland,KY,41101, 99 15th Street  Ashland KY 41101 ,38.4810273,-82.6399459,AKY,"Ashland, KY"
-8208827.1,5257492.746,TRAIN,,525 East Street,,Rensselaer,NY,12144, 525 East Street  Rensselaer NY 12144 ,42.6413525,-73.7411492,ALB,"Albany-Rensselaer, NY"
-9027221.191,5000737.85,TRAIN,,820 East Main Street,,Alliance,OH,44601, 820 East Main Street  Alliance OH 44601 ,40.9218213,-81.0958519,ALC,"Alliance, OH"
-8977344.676,4540549.332,TRAIN,,1 C&O Plaza on Railroad Avenue,,Alderson,WV,24910, 1 C&O Plaza on Railroad Avenue  Alderson WV 24910 ,37.7243179,-80.6448262,ALD,"Alderson, WV"
-9434974.605,5198081.645,TRAIN,,300 North Eaton Street,,Albion,MI,49224, 300 North Eaton Street  Albion MI 49224 ,42.2472581,-84.7556711,ALI,"Albion, MI"
-10036265.2,4710363.841,TRAIN,,1 Golf Road,,Alton,IL,62002, 1 Golf Road  Alton IL 62002 ,38.9211325,-90.1573249,ALN,"Alton, IL"
-11539547.85,3549561.508,TRAIN,,102 West Holland Avenue,,Alpine,TX,79830, 102 West Holland Avenue  Alpine TX 79830 ,30.3581727,-103.6618239,ALP,"Alpine, TX"
-8727628.73,4940989.648,TRAIN,,1231 11th Avenue,,Altoona,PA,16601, 1231 11th Avenue  Altoona PA 16601 ,40.5147748,-78.4015526,ALT,"Altoona, PA"
-8578539.591,4693993.675,TRAIN,,110 Callahan Drive,,Alexandria,VA,22301, 110 Callahan Drive  Alexandria VA 22301 ,38.806422,-77.0622106,ALX,"Alexandria, VA"
-13703739.72,5563532.849,TRAIN,,110 10th Avenue SW,,Albany,OR,97321, 110 10th Avenue SW  Albany OR 97321 ,44.6301042,-123.1029538,ALY,"Albany, OR"
-8262077.132,5304931.377,TRAIN,,466 West Main Street,,Amsterdam,NY,12010, 466 West Main Street  Amsterdam NY 12010 ,42.9536796,-74.219526,AMS,"Amsterdam, NY"
-13122043.25,4002488.538,TRAIN,,2626 East Katella Avenue,,Anaheim,CA,92806, 2626 East Katella Avenue  Anaheim CA 92806 ,33.8033899,-117.8774766,ANA,"Anaheim, CA"
-9322245.775,5204173.429,TRAIN,,325 Depot Street,,Ann Arbor,MI,48104, 325 Depot Street  Ann Arbor MI 48104 ,42.2876789,-83.7427503,ARB,"Ann Arbor, MI"
-8381289.08,4867146.462,TRAIN,,39 Station Avenue,,Ardmore,PA,19003, 39 Station Avenue  Ardmore PA 19003 ,40.0082965,-75.290293,ARD,"Ardmore, PA"
-10358644.93,4044109.669,TRAIN,,798 South 5th Street,,Arkadelphia,AR,71923, 798 South 5th Street  Arkadelphia AR 71923 ,34.1141599,-93.0529837,ARK,"Arkadelphia, AR"
-13478920.18,4707878.662,TRAIN,,277 Nevada Street,,Auburn,CA,95603, 277 Nevada Street  Auburn CA 95603 ,38.9039915,-121.0834116,ARN,"Auburn, CA"
-8625179.571,4545521.296,TRAIN,,112 North Railroad Avenue,,Ashland,VA,23005, 112 North Railroad Avenue  Ashland VA 23005 ,37.7595903,-77.4811988,ASD,"Ashland, VA"
-8889497.587,5359800.126,TRAIN,,1199 Waterdown Road,,Aldershot,ON,L7T 4A8, 1199 Waterdown Road  Aldershot ON L7T 4A8 ,43.3133211,-79.8556262,AST,"Aldershot, ON"
-9394528.035,4001904.939,TRAIN,,"1688 Peachtree Street, NW",,Atlanta,GA,30309," 1688 Peachtree Street, NW  Atlanta GA 30309 ",33.7993486,-84.3934345,ATL,"Atlanta, GA"
-9554791.189,3981783.943,TRAIN,,126 West 4th Street,,Anniston,AL,36201, 126 West 4th Street  Anniston AL 36201 ,33.6490466,-85.832026,ATN,"Anniston, AL"
-10882253.63,3538232.906,TRAIN,,250 North Lamar Boulevard,,Austin,TX,78703, 250 North Lamar Boulevard  Austin TX 78703 ,30.2695528,-97.7570133,AUS,"Austin, TX"
-8528819.619,4765787.162,TRAIN,Penn Station,1500 North Charles Street,,Baltimore,MD,21201,Penn Station 1500 North Charles Street  Baltimore MD 21201 ,39.3073772,-76.6158071,BAL,"Baltimore, MD"
-9585905.179,5208211.127,TRAIN,,541 Railroad Street,,Bangor,MI,49013, 541 Railroad Street  Bangor MI 49013 ,42.3141748,-86.1118692,BAM,"Bangor, MI"
-13027213.18,4150954.755,TRAIN,Harvey House Rail Depot,685 North First Avenue,,Barstow,CA,92311,Harvey House Rail Depot 685 North First Avenue  Barstow CA 92311 ,34.9046571,-117.0247532,BAR,"Barstow, CA"
-7912125.047,5213149.974,TRAIN,Back Bay Station,145 Dartmouth Street,,Boston,MA,2116,Back Bay Station 145 Dartmouth Street  Boston MA 2116 ,42.34735,-71.075727,BBY,"Boston, MA"
-8604862.206,4692674.953,TRAIN,,10399 Premier Court,Virginia Railway Express Station,Burke,VA,22015, 10399 Premier Court Virginia Railway Express Station Burke VA 22015 ,38.7974014,-77.2988039,BCV,"Burke Centre, VA"
-13637892.22,6227529.442,TRAIN,,401 Harris Avenue,,Bellingham,WA,98225, 401 Harris Avenue  Bellingham WA 98225 ,48.7204609,-122.5110495,BEL,"Bellingham, WA"
-12278196.37,3759210.983,TRAIN,,105 East 4th Street,,Benson,AZ,85602, 105 East 4th Street  Benson AZ 85602 ,31.9688036,-110.2970562,BEN,"Benson, AZ"
-8100193.372,5106549.943,TRAIN,,51 Depot Road,,Berlin,CT,6037, 51 Depot Road  Berlin CT 6037 ,41.6355454,-72.765452,BER,"Berlin, CT"
-13247934.72,4214569.866,TRAIN,,601 Truxtun Avenue,,Bakersfield,CA,93301, 601 Truxtun Avenue  Bakersfield CA 93301 ,35.3721912,-119.0076905,BFD,"Bakersfield, CA"
-8780185.816,5293490.095,TRAIN,Exchange Street Station,75 Exchange Street,,Buffalo,NY,14203,Exchange Street Station 75 Exchange Street  Buffalo NY 14203 ,42.8783519,-78.8737893,BFX,"Buffalo, NY"
-9663314.141,3963588.21,TRAIN,,Intermodal Facility,1801 Morris Avenue,Birmingham,AL,35203, Intermodal Facility 1801 Morris Avenue Birmingham AL 35203 ,33.5126319,-86.8072363,BHM,"Birmingham, AL"
-13614453.9,4560690.89,TRAIN,,700 University Avenue,,Berkeley,CA,94710, 700 University Avenue  Berkeley CA 94710 ,37.8670348,-122.3005735,BKY,"Berkeley, CA"
-8064495.771,5332779.112,TRAIN,,54 Depot Street,,Bellows Falls,VT,5101, 54 Depot Street  Bellows Falls VT 5101 ,43.1364163,-72.4447231,BLF,"Bellows Falls, VT"
-10478211.31,3513382.28,TRAIN,,2555 West Cedar Street,,Beaumont,TX,77704, 2555 West Cedar Street  Beaumont TX 77704 ,30.0763458,-94.1275991,BMT,"Beaumont, TX"
-8842611.862,4313595.325,TRAIN,,101 North Main Street,,Burlington,NC,27217, 101 North Main Street  Burlington NC 27217 ,36.09419,-79.4346541,BNC,"Burlington, NC"
-13521838.77,5734798.888,TRAIN,,Highway 14 and Walnut Street,,Bingen,WA,98605, Highway 14 and Walnut Street  Bingen WA 98605 ,45.7160159,-121.4696811,BNG,"Bingen-White Salmon, WA"
-9905688.302,4940189.386,TRAIN,,11 Uptown Circle,,Normal,IL,61761, 11 Uptown Circle  Normal IL 61761 ,40.5084804,-88.9849829,BNL,"Bloomington-Normal, IL"
-7910487.982,5215999.833,TRAIN,North Station,135 Causeway Street,,Boston,MA,2114,North Station 135 Causeway Street  Boston MA 2114 ,42.3664424,-71.061974,BON,"Boston, MA"
-7909840.325,5213902.201,TRAIN,South Station,2 South Station,,Boston,MA,2110,South Station 2 South Station  Boston MA 2110 ,42.3519448,-71.0551625,BOS,"Boston, MA"
-8076952.424,5289298.352,TRAIN,,10 Vernon Road,,Brattleboro,VT,5301, 10 Vernon Road  Brattleboro VT 5301 ,42.8508077,-72.5565753,BRA,"Brattleboro, VT"
-10067854.5,3708692.164,TRAIN,,440 North Railroad Avenue,,Brookhaven,MS,39601, 440 North Railroad Avenue  Brookhaven MS 39601 ,31.583077,-90.4408892,BRH,"Brookhaven, MS"
-7788528.433,5451740.887,TRAIN,,16 Station Avenue,,Brunswick,ME,4011, 16 Station Avenue  Brunswick ME 4011 ,43.9113316,-69.9653355,BRK,"Brunswick, ME"
-10141423.54,4983738.604,TRAIN,,300 South Main Street,,Burlington,IA,52601, 300 South Main Street  Burlington IA 52601 ,40.8057135,-91.1017708,BRL,"Burlington, IA"
-12580567.91,6196170.077,TRAIN,,Heart Butte Road and Depot Road,,Browning,MT,59417, Heart Butte Road and Depot Road  Browning MT 59417 ,48.535493,-113.0123595,BRO,"Browning, MT"
-8147199.709,5038634.308,TRAIN,,525 Water Street,,Bridgeport,CT,6604, 525 Water Street  Bridgeport CT 6604 ,41.1778574,-73.1873474,BRP,"Bridgeport, CT"
-9483065.865,5208803.384,TRAIN,,119 McCamly Street South,,Battle Creek,MI,49017, 119 McCamly Street South  Battle Creek MI 49017 ,42.318371,-85.1877043,BTL,"Battle Creek, MI"
-8763803.589,5297830.868,TRAIN,Depew Station,55 Dick Road,,Depew,NY,14043,Depew Station 55 Dick Road  Depew NY 14043 ,42.9072488,-78.7270496,BUF,"Buffalo, NY"
-13175082.44,4054757.09,TRAIN,Hollywood Burbank Airport,3750 Empire Avenue,,Burbank,CA,91505,Hollywood Burbank Airport 3750 Empire Avenue  Burbank CA 91505 ,34.192895,-118.3534947,BUR,"Burbank, CA"
-8537570.668,4749264.483,TRAIN,,7 Amtrak Way,,Baltimore,MD,21240, 7 Amtrak Way  Baltimore MD 21240 ,39.1921035,-76.6946308,BWI,"BWI Marshall Airport, MD"
-9412263.744,5083450.03,TRAIN,,Paige and Lynn Street,,Bryan,OH,43506, Paige and Lynn Street  Bryan OH 43506 ,41.4805319,-84.5521501,BYN,"Bryan, OH"
-8975155.444,4062173.22,TRAIN,,1060 West Dekalb Street,,Camden,SC,29020, 1060 West Dekalb Street  Camden SC 29020 ,34.2481411,-80.6252552,CAM,"Camden, SC"
-10840552.57,3809308.638,TRAIN,,206 North Border Street,,Cleburne,TX,76031, 206 North Border Street  Cleburne TX 76031 ,32.3497312,-97.382173,CBR,"Cleburne, TX"
-9908839.011,5363962.085,TRAIN,,359 North Ludington Street,,Columbus,WI,53925, 359 North Ludington Street  Columbus WI 53925 ,43.3407013,-89.0125743,CBS,"Columbus, WI"
-9931550.249,4540543.367,TRAIN,,401 South Illinois Avenue,,Carbondale,IL,62901, 401 South Illinois Avenue  Carbondale IL 62901 ,37.7242054,-89.2162959,CDL,"Carbondale, IL"
-9922587.922,4654219.662,TRAIN,,110 South Oak St.,,Centralia,IL,62801, 110 South Oak St.  Centralia IL 62801 ,38.5274063,-89.1360798,CEN,"Centralia, IL"
-9755978.809,5142825.357,TRAIN,Union Station,225 South Canal Street,,Chicago,IL,60606,Union Station 225 South Canal Street  Chicago IL 60606 ,41.8786897,-87.640311,CHI,"Chicago, IL"
-9822984.571,4882791.669,TRAIN,,45 East University Avenue,,Champaign,IL,61820, 45 East University Avenue  Champaign IL 61820 ,40.1157434,-88.2412052,CHM,"Champaign-Urbana, IL"
-8905342.288,3878787.575,TRAIN,,4565 Gaynor Avenue,North Charleston Transit Center,North Charleston,SC,29405, 4565 Gaynor Avenue North Charleston Transit Center North Charleston SC 29405 ,32.8755257,-79.9979853,CHS,"Charleston, SC"
-9087955.99,4628473.273,TRAIN,,350 MacCorkle Avenue - Southeast,,Charleston,WV,25314, 350 MacCorkle Avenue - Southeast  Charleston WV 25314 ,38.3463227,-81.6384011,CHW,"Charleston, WV"
-13563820.69,4825808.895,TRAIN,,450 Orange Street,,Chico,CA,95928, 450 Orange Street  Chico CA 95928 ,39.7233631,-121.8461422,CIC,"Chico, CA"
-9410623.095,4737431.004,TRAIN,Union Terminal,1301 Western Avenue,,Cincinnati,OH,45203,Union Terminal 1301 Western Avenue  Cincinnati OH 45203 ,39.1099676,-84.537565,CIN,"Cincinnati, OH"
-8057042.596,5368205.886,TRAIN,,Plains Road and Maple Avenue,,Claremont,NH,3743, Plains Road and Maple Avenue  Claremont NH 3743 ,43.3681942,-72.3776683,CLA,"Claremont, NH"
-9021386.441,4028037.166,TRAIN,,850 Pulaski Street,,Columbia,SC,29201, 850 Pulaski Street  Columbia SC 29201 ,33.9942817,-81.0402291,CLB,"Columbia, SC"
-9094376.704,5087235.029,TRAIN,,200 Cleveland Memorial Shoreway,,Cleveland,OH,44114, 200 Cleveland Memorial Shoreway  Cleveland OH 44114 ,41.5056779,-81.6964167,CLE,"Cleveland, OH"
-8886341.744,4553257.935,TRAIN,,307 East Ridgeway Street,,Clifton Forge,VA,24422, 307 East Ridgeway Street  Clifton Forge VA 24422 ,37.8143336,-79.8281423,CLF,"Clifton Forge, VA"
-8682188.197,4646372.121,TRAIN,,111 South Commerce Street,,Culpeper,VA,22701, 111 South Commerce Street  Culpeper VA 22701 ,38.4721927,-77.9934482,CLP,"Culpeper, VA"
-8997154.637,4196736.37,TRAIN,,1914 North Tryon Street,,Charlotte,NC,28206, 1914 North Tryon Street  Charlotte NC 28206 ,35.2412903,-80.8226901,CLT,"Charlotte, NC"
-13250818.33,4057834.187,TRAIN,,30 Lewis Road,,Camarillo,CA,93010, 30 Lewis Road  Camarillo CA 93010 ,34.2158508,-119.034082,CML,"Camarillo, CA"
-13556666.58,5345027.835,TRAIN,,Palmer/Kranz Street and Depot Street,,Chemult,OR,97731, Palmer/Kranz Street and Depot Street  Chemult OR 97731 ,43.2166701,-121.781431,CMO,"Chemult, OR"
-13289975.1,4281971.194,TRAIN,,4011 Grant Drive,,Allensworth,CA,93219, 4011 Grant Drive  Allensworth CA 93219 ,35.8659168,-119.3878058,CNL,"Col Allensworth State Park, CA"
-8145396.128,5405807.156,TRAIN,,266 Main Street,,Castleton,VT,5735, 266 Main Street  Castleton VT 5735 ,43.6134676,-73.1713077,CNV,"Castleton, VT"
-13309031.33,4314186.19,TRAIN,,1099 Otis Avenue,,Corcoran,CA,93212, 1099 Otis Avenue  Corcoran CA 93212 ,36.0983441,-119.5570997,COC,"Corcoran, CA"
-9477005.047,4814629.142,TRAIN,,1012 Eastern Avenue,,Connersville,IN,47331, 1012 Eastern Avenue  Connersville IN 47331 ,39.6444689,-85.1312056,COI,"Connersville, IN"
-8440347.428,4863863.886,TRAIN,,Third Avenue and Fleetwood Street,,Coatesville,PA,19320, Third Avenue and Fleetwood Street  Coatesville PA 19320 ,39.9857503,-75.8209438,COT,"Coatesville, PA"
-8860231.766,4868891.192,TRAIN,,North Water Street & West Peach Street,,Connellsville,PA,15425, North Water Street & West Peach Street  Connellsville PA 15425 ,40.0201778,-79.5928198,COV,"Connellsville, PA"
-13464436.18,4735887.823,TRAIN,,99 Railroad Street,at Church Street,Colfax,CA,95713, 99 Railroad Street at Church Street Colfax CA 95713 ,39.0990124,-120.9532317,COX,"Colfax, CA"
-13305238.1,4082205.785,TRAIN,,475 Linden Avenue,,Carpinteria,CA,93013, 475 Linden Avenue  Carpinteria CA 93013 ,34.3966997,-119.5230908,CPN,"Carpinteria, CA"
-9673573.844,4872441.917,TRAIN,,400 North Green Street,,Crawfordsville,IN,47933, 400 North Green Street  Crawfordsville IN 47933 ,40.044813,-86.8995886,CRF,"Crawfordsville, IN"
-10504288,5020742.06,TRAIN,,116 West Adams Street,,Creston,IA,50801, 116 West Adams Street  Creston IA 50801 ,41.0570373,-94.3624947,CRN,"Creston, IA"
-8224550.639,5040394.03,TRAIN,,4 Veteran's Plaza and 1 Croton Point Avenue,,Croton-on-Hudson,NY,10520, 4 Veteran's Plaza and 1 Croton Point Avenue  Croton-on-Hudson NY 10520 ,41.1898375,-73.8826293,CRT,"Croton-Harmon, NY"
-10006429.12,4761758.56,TRAIN,,128 Alton Road,,Carlinville,IL,62626, 128 Alton Road  Carlinville IL 62626 ,39.2793021,-89.8891999,CRV,"Carlinville, IL"
-9220872.256,4121984.639,TRAIN,,1105 Tiger Boulevard,,Clemson,SC,29631, 1105 Tiger Boulevard  Clemson SC 29631 ,34.6910414,-82.8324641,CSN,"Clemson, SC"
-13687073.9,5896080.194,TRAIN,,210 Railroad Avenue,,Centralia,WA,98531, 210 Railroad Avenue  Centralia WA 98531 ,46.7168749,-122.9560185,CTL,"Centralia, WA"
-8767300.776,4815302.76,TRAIN,Amtrak Station,201 East Harrison Street,,Cumberland,MD,21502,Amtrak Station 201 East Harrison Street  Cumberland MD 21502 ,39.6505246,-78.7579373,CUM,"Cumberland, MD"
-12504696.21,6213721.763,TRAIN,,101 BNSF Industrial Site,,Cut Bank,MT,59427, 101 BNSF Industrial Site  Cut Bank MT 59427 ,48.6303059,-112.3184279,CUT,"Cut Bank, MT"
-8737654.594,4583875.469,TRAIN,,810 West Main Street,,Charlottesville,VA,22903, 810 West Main Street  Charlottesville VA 22903 ,38.0314614,-78.4918209,CVS,"Charlottesville, VA"
-8343639.481,4876362.8,TRAIN,,700 Station Avenue,Station Avenue and Railroad Avenue,Cornwells Heights,PA,19020, 700 Station Avenue Station Avenue and Railroad Avenue Cornwells Heights PA 19020 ,40.0717295,-74.9521065,CWH,"Cornwells Heights, PA"
-13202428.07,4062852.811,TRAIN,,10040 Old Depot Plaza Road,,Chatsworth,CA,91311, 10040 Old Depot Plaza Road  Chatsworth CA 91311 ,34.2530116,-118.5994635,CWT,"Chatsworth, CA"
-8769999.804,4271530.889,TRAIN,,211 North Academy Street,,Cary,NC,27513, 211 North Academy Street  Cary NC 27513 ,35.7879989,-78.7825819,CYN,"Cary, NC"
-10776532.94,3865622.519,TRAIN,Eddie Bernice Johnson Union Sta,400 South Houston Street,,Dallas,TX,75202,Eddie Bernice Johnson Union Sta 400 South Houston Street  Dallas TX 75202 ,32.7762167,-96.8075467,DAL,"Dallas, TX"
-8836983.215,4381292.773,TRAIN,,677 Craghead Street,,Danville,VA,24541, 677 Craghead Street  Danville VA 24541 ,36.584101,-79.3838857,DAN,"Danville, VA"
-13551781.02,4656500.763,TRAIN,,840 Second Street,,Davis,CA,95616, 840 Second Street  Davis CA 95616 ,38.5434317,-121.7377798,DAV,"Davis, CA"
-11133838.14,4544494.716,TRAIN,,Central Avenue & Wyatt Earp Street,,Dodge City,KS,67801, Central Avenue & Wyatt Earp Street  Dodge City KS 67801 ,37.7524206,-100.0170722,DDG,"Dodge City, KS"
-11995160.05,3799038.449,TRAIN,,400 East Railroad Avenue,,Deming,NM,88030, 400 East Railroad Avenue  Deming NM 88030 ,32.2707789,-107.7553239,DEM,"Deming, NM"
-11688539.76,4830108.558,TRAIN,Union Station,1701 Wynkoop Street,,Denver,CO,80202,Union Station 1701 Wynkoop Street  Denver CO 80202 ,39.7531499,-105.0001518,DEN,"Denver, CO"
-9265712.934,5207104.433,TRAIN,,21201 Michigan Avenue,,Dearborn,MI,48124, 21201 Michigan Avenue  Dearborn MI 48124 ,42.3070292,-83.235208,DER,"Dearborn, MI"
-9247577.426,5216280.302,TRAIN,,11 West Baltimore Avenue,,Detroit,MI,48202, 11 West Baltimore Avenue  Detroit MI 48202 ,42.3679493,-83.0721787,DET,"Detroit, MI"
-8919156.903,3038405.189,TRAIN,,1300 West Hillsboro Boulevard,,Deerfield Beach,FL,33442, 1300 West Hillsboro Boulevard  Deerfield Beach FL 33442 ,26.3168532,-80.1221615,DFB,"Deerfield Beach, FL"
-7896560.912,5333204.438,TRAIN,,3 Depot Road,,Durham,NH,3824, 3 Depot Road  Durham NH 3824 ,43.1393631,-70.9361182,DHM,"Durham, NH"
-8835684.438,4085021.543,TRAIN,,100 North Railroad Avenue,,Dillon,SC,29536, 100 North Railroad Avenue  Dillon SC 29536 ,34.4175892,-79.3721718,DIL,"Dillon, SC"
-8915706.778,3055423.53,TRAIN,,345 South Congress Avenue,,Delray Beach,FL,33444, 345 South Congress Avenue  Delray Beach FL 33444 ,26.4551452,-80.092645,DLB,"Delray Beach, FL"
-9056116.661,3377918.704,TRAIN,,2491 Old New York Avenue,,DeLand,FL,32720, 2491 Old New York Avenue  DeLand FL 32720 ,29.0178588,-81.3526387,DLD,"DeLand, FL"
-10669528.67,5912694.029,TRAIN,,116 Pioneer Street,,Detroit Lakes,MN,56501, 116 Pioneer Street  Detroit Lakes MN 56501 ,46.8197994,-95.8459849,DLK,"Detroit Lakes, MN"
-8783809.326,4300257.309,TRAIN,,601 West Main Street,,Durham,NC,27701, 601 West Main Street  Durham NC 27701 ,35.9974328,-78.9070652,DNC,"Durham, NC"
-9032868.489,3938680.76,TRAIN,,200 West Baruch Street,,Denmark,SC,29042, 200 West Baruch Street  Denmark SC 29042 ,33.3261295,-81.1436186,DNK,"Denmark, SC"
-9585615.188,5158126.117,TRAIN,,200 Depot Drive,,Dowagiac,MI,49047, 200 Depot Drive  Dowagiac MI 49047 ,41.9809415,-86.1089375,DOA,"Dowagiac, MI"
-7890143.119,5342154.653,TRAIN,,33 Chestnut Street,,Dover,NH,3820, 33 Chestnut Street  Dover NH 3820 ,43.1981007,-70.878211,DOV,"Dover, NH"
-8428085.137,4866262.136,TRAIN,,159 Viaduct Avenue,,Downingtown,PA,19335, 159 Viaduct Avenue  Downingtown PA 19335 ,40.001993,-75.7103786,DOW,"Downingtown, PA"
-9934180.287,4581168.492,TRAIN,,20 North Chestnut Street,,Du Quoin,IL,62832, 20 North Chestnut Street  Du Quoin IL 62832 ,38.0122293,-89.2401275,DQN,"Du Quoin, IL"
-9348869.627,5298207.444,TRAIN,,200 South Railroad Street,,Durand,MI,48429, 200 South Railroad Street  Durand MI 48429 ,42.909323,-83.9824479,DRD,"Durand, MI"
-11232433.88,3421828.131,TRAIN,,100 North Main Street,,Del Rio,TX,78840, 100 North Main Street  Del Rio TX 78840 ,29.362335,-100.9026281,DRT,"Del Rio, TX"
-13611101,5043533.674,TRAIN,,5750 Sacramento Avenue,,Dunsmuir,CA,96025, 5750 Sacramento Avenue  Dunsmuir CA 96025 ,41.2112398,-122.2705326,DUN,"Dunsmuir, CA"
-11005198.68,6125253.82,TRAIN,,Railroad Avenue and Third Street,,Devils Lake,ND,58301, Railroad Avenue and Third Street  Devils Lake ND 58301 ,48.1103899,-98.8615194,DVL,"Devils Lake, ND"
-9844061.931,5025605.289,TRAIN,,401 South Columbia Street,,Dwight,IL,60420, 401 South Columbia Street  Dwight IL 60420 ,41.0898866,-88.4308091,DWT,"Dwight, IL"
-9742468.288,5088665.961,TRAIN,,913 Sheffield Avenue,,Dyer,IN,46311, 913 Sheffield Avenue  Dyer IN 46311 ,41.5154615,-87.5183201,DYE,"Dyer, IN"
-13623741.92,6075483.727,TRAIN,,211 Railroad Avenue,,Edmonds,WA,98020, 211 Railroad Avenue  Edmonds WA 98020 ,47.8111305,-122.3841639,EDM,"Edmonds, WA"
-9857019.838,4738454.217,TRAIN,,401 West National Avenue,,Effingham,IL,62401, 401 West National Avenue  Effingham IL 62401 ,39.1170159,-88.5472043,EFG,"Effingham, IL"
-9570342.925,5113277.54,TRAIN,,131 Tyler Avenue,,Elkhart,IN,46515, 131 Tyler Avenue  Elkhart IN 46515 ,41.6806485,-85.9717609,EKH,"Elkhart, IN"
-12885291.45,4988253.624,TRAIN,,1300 Water Street (Train 5),1301 Sharps Access Road (Train 6),Elko,NV,89801, 1300 Water Street (Train 5) 1301 Sharps Access Road (Train 6) Elko NV 89801 ,40.8365069,-115.7504958,ELK,"Elko, NV"
-11855041.95,3731501.168,TRAIN,Union Depot,700 West San Francisco Avenue,,El Paso,TX,79901,Union Depot 700 West San Francisco Avenue  El Paso TX 79901 ,31.7573824,-106.4959039,ELP,"El Paso, TX"
-8528435.127,4887332.219,TRAIN,,50 South Wilson Avenue,,Elizabethtown,PA,17022, 50 South Wilson Avenue  Elizabethtown PA 17022 ,40.1467765,-76.6123545,ELT,"Elizabethtown, PA"
-9138961.62,5067076.807,TRAIN,,410 East River Road,,Elyria,OH,44035, 410 East River Road  Elyria OH 44035 ,41.3701676,-82.0964508,ELY,"Elyria, OH"
-13613441.78,4556915.285,TRAIN,,5885 Horton Street,,Emeryville,CA,94608, 5885 Horton Street  Emeryville CA 94608 ,37.8404464,-122.2917273,EMY,"Emeryville, CA"
-13308165.13,5994620.176,TRAIN,,90 Alder Street NW,,Ephrata,WA,98823, 90 Alder Street NW  Ephrata WA 98823 ,47.3208294,-119.5493805,EPH,"Ephrata, WA"
-8914737.274,5179100.205,TRAIN,,125 West 14th Street,,Erie,PA,16501, 125 West 14th Street  Erie PA 16501 ,42.1207438,-80.0823217,ERI,"Erie, PA"
-12647113.71,6152819.51,TRAIN,,290 Izaak Walton Inn Road,,Essex,MT,59916, 290 Izaak Walton Inn Road  Essex MT 59916 ,48.2786623,-113.611914,ESM,"Essex, MT"
-8138598.964,5541972.826,TRAIN,,29 Railroad Avenue,,Essex Junction,VT,5452, 29 Railroad Avenue  Essex Junction VT 5452 ,44.4925812,-73.1101592,ESX,"Essex Junction-Burlington, VT"
-13702580.53,5473964.996,TRAIN,Amtrak Station,433 Willamette Street,,Eugene,OR,97401,Amtrak Station 433 Willamette Street  Eugene OR 97401 ,44.0551854,-123.0923267,EUG,"Eugene, OR"
-13603004.99,6102764.353,TRAIN,,3201 Smith Avenue,,Everett,WA,98201, 3201 Smith Avenue  Everett WA 98201 ,47.975286,-122.1972744,EVR,"Everett, WA"
-8257934.916,4967696.563,TRAIN,Liberty International Airport,3 Brewster Road,,Newark,NJ,7114,Liberty International Airport 3 Brewster Road  Newark NJ 7114 ,40.6895314,-74.1744624,EWR,"Newark, NJ"
-7899086.418,5309084.682,TRAIN,,60 Lincoln Street,,Exeter,NH,3833, 60 Lincoln Street  Exeter NH 3833 ,42.9810332,-70.9586853,EXR,"Exeter, NH"
-8418170.798,4868747.163,TRAIN,,445 Walkertown Road,,Exton,PA,19341, 445 Walkertown Road  Exton PA 19341 ,40.01991,-75.6214796,EXT,"Exton, PA"
-10774099.33,5922670.199,TRAIN,,420 4th Street North,,Fargo,ND,58102, 420 4th Street North  Fargo ND 58102 ,46.8809716,-96.785096,FAR,"Fargo, ND"
-8781414.726,4171357.927,TRAIN,,472 Hay Street,,Fayetteville,NC,28301, 472 Hay Street  Fayetteville NC 28301 ,35.0550969,-78.8847487,FAY,"Fayetteville, NC"
-8622496.662,4621668.84,TRAIN,,200 Lafayette Boulevard,,Fredericksburg,VA,22401, 200 Lafayette Boulevard  Fredericksburg VA 22401 ,38.2960889,-77.4612034,FBG,"Fredericksburg, VA"
-8190949.523,5353099.96,TRAIN,,70 East Street,,Fort Edward,NY,12828, 70 East Street  Fort Edward NY 12828 ,43.2693154,-73.5809676,FED,"Fort Edward-Glens Falls, NY"
-13577408.89,4619854.848,TRAIN,,4921 Vanden Road,,Fairfield,CA,94533, 4921 Vanden Road  Fairfield CA 94533 ,38.2867319,-121.9690528,FFV,"Fairfield-Vacaville, CA"
-12428696.7,4190736.669,TRAIN,Amtrak Station,1 East Route 66,,Flagstaff,AZ,86001,Amtrak Station 1 East Route 66  Flagstaff AZ 86001 ,35.1973203,-111.6491951,FLG,"Flagstaff, AZ"
-9312068.284,5314321.242,TRAIN,,1407 South Dort Highway,,Flint,MI,48503, 1407 South Dort Highway  Flint MI 48503 ,43.0132589,-83.6542545,FLN,"Flint, MI"
-8878515.18,4055576.299,TRAIN,,805 East Day Street,,Florence,SC,29506, 805 East Day Street  Florence SC 29506 ,34.1993194,-79.7575335,FLO,"Florence, SC"
-10167587.18,4956833.384,TRAIN,,1601 20th Street,,Fort Madison,IA,52627, 1601 20th Street  Fort Madison IA 52627 ,40.6223036,-91.3379791,FMD,"Fort Madison, IA"
-11555277.94,4901926.441,TRAIN,,South Ensign Street and Main Street,,Fort Morgan,CO,80701, South Ensign Street and Main Street  Fort Morgan CO 80701 ,40.2471069,-103.8028126,FMG,"Fort Morgan, CO"
-13581813.79,4517327.016,TRAIN,Amtrak/ACE Station,37260 Fremont Boulevard,,Fremont,CA,94536,Amtrak/ACE Station 37260 Fremont Boulevard  Fremont CA 94536 ,37.5591357,-122.007382,FMT,"Fremont, CA"
-13334175.74,4402714.197,TRAIN,,2650 Tulare Street,,Fresno,CA,93721, 2650 Tulare Street  Fresno CA 93721 ,36.7384626,-119.7827285,FNO,"Fresno, CA"
-7950441.784,5202413.235,TRAIN,,417 Waverly Street,,Framingham,MA,1702, 417 Waverly Street  Framingham MA 1702 ,42.2765968,-71.4178303,FRA,"Framingham, MA"
-7803758.836,5443037.24,TRAIN,,23 Depot Road,,Freeport,ME,4032, 23 Depot Road  Freeport ME 4032 ,43.8551267,-70.1022496,FRE,"Freeport, ME"
-8169702.08,5442844.718,TRAIN,,NYS Hwy 74 and Sandy Redoubt,,Ticonderoga,NY,12883, NYS Hwy 74 and Sandy Redoubt  Ticonderoga NY 12883 ,43.8523594,-73.3881202,FTC,"Ticonderoga, NY"
-8924483.876,3013859.415,TRAIN,,200 Southwest 21st Terrace,,Fort Lauderdale,FL,33312, 200 Southwest 21st Terrace  Fort Lauderdale FL 33312 ,26.1197235,-80.1697006,FTL,"Fort Lauderdale, FL"
-9895053.466,4373201.58,TRAIN,,21 Newton Road,,Fulton,KY,42041, 21 Newton Road  Fulton KY 42041 ,36.5235701,-88.887283,FTN,"Fulton, KY"
-10834356.53,3862507.463,TRAIN,,1001 Jones Street,,Fort Worth,TX,76102, 1001 Jones Street  Fort Worth TX 76102 ,32.750908,-97.3253916,FTW,"Fort Worth, TX"
-13127112.85,4011221.956,TRAIN,,120 East Santa Fe Avenue,,Fullerton,CA,92832, 120 East Santa Fe Avenue  Fullerton CA 92832 ,33.8689101,-117.9228766,FUL,"Fullerton, CA"
-13577306.13,4495959.78,TRAIN,Great America,5099 Stars and Stripes Drive,,Santa Clara,CA,95054,Great America 5099 Stars and Stripes Drive  Santa Clara CA 95054 ,37.4064495,-121.9669427,GAC,"Santa Clara, CA"
-9034953.626,4200523.822,TRAIN,,350 Hancock Street,,Gastonia,NC,28054, 350 Hancock Street  Gastonia NC 28054 ,35.2692415,-81.1624108,GAS,"Gastonia, NC"
-10059286.98,5004186.214,TRAIN,,225 South Seminary Street,,Galesburg,IL,61401, 225 South Seminary Street  Galesburg IL 61401 ,40.9446655,-90.3639127,GBB,"Galesburg, IL"
-11229160.49,4574393.912,TRAIN,,100 North 7th Street,,Garden City,KS,67846, 100 North 7th Street  Garden City KS 67846 ,37.965114,-100.8726264,GCK,"Garden City, KS"
-13164518.33,4045425.493,TRAIN,,400 West Cerritos Avenue,,Glendale,CA,91204, 400 West Cerritos Avenue  Glendale CA 91204 ,34.1246317,-118.2600713,GDL,"Glendale, CA"
-8081880.315,5249086.994,TRAIN,,12 Olive Street,,Greenfield,MA,1301, 12 Olive Street  Greenfield MA 1301 ,42.5858644,-72.600656,GFD,"Greenfield, MA"
-10810329.74,6093145.732,TRAIN,,5555 DeMers Avenue,,Grand Forks,ND,58201, 5555 DeMers Avenue  Grand Forks ND 58201 ,47.9174399,-97.1108348,GFK,"Grand Forks, ND"
-11870687.47,6139334.251,TRAIN,,424 1st Avenue South,,Glasgow,MT,59230, 424 1st Avenue South  Glasgow MT 59230 ,48.1949707,-106.6357033,GGW,"Glasgow, MT"
-12085950.42,4730897.81,TRAIN,,339 South 1st Street,,Grand Junction,CO,81501, 339 South 1st Street  Grand Junction CO 81501 ,39.0646037,-108.5705833,GJT,"Grand Junction, CO"
-10813675.93,3978581.193,TRAIN,,605 East California Street,,Gainesville,TX,76240, 605 East California Street  Gainesville TX 76240 ,33.6249511,-97.1406912,GLE,"Gainesville, TX"
-9795899.313,4975911.757,TRAIN,,800 US Highway 24 West,,Gilman,IL,60938, 800 US Highway 24 West  Gilman IL 60938 ,40.7617,-87.9956,GLM,"Gilman, IL"
-9774471.099,5172227.59,TRAIN,,1116 Depot Street,,Glenview,IL,60025, 1116 Depot Street  Glenview IL 60025 ,42.0747612,-87.805821,GLN,"Glenview, IL"
-12104943.6,4236029.383,TRAIN,,201 East Highway 66,,Gallup,NM,87301, 201 East Highway 66  Gallup NM 87301 ,35.5292522,-108.7401194,GLP,"Gallup, NM"
-8856350.304,5341846.299,TRAIN,,99 Ontario Street,,Grimsby,ON,L3M 3H6, 99 Ontario Street  Grimsby ON L3M 3H6 ,43.1959479,-79.5580391,GMS,"Grimsby, ON"
-8855119.976,4910362.66,TRAIN,Amtrak Station,Harrison Avenue and Seton Hill Drive,,Greensburg,PA,15601,Amtrak Station Harrison Avenue and Seton Hill Drive  Greensburg PA 15601 ,40.3045368,-79.5470014,GNB,"Greensburg, PA"
-9330766.107,4067661.001,TRAIN,,116 Industrial Boulevard,,Gainesville,GA,30501, 116 Industrial Boulevard  Gainesville GA 30501 ,34.2887696,-83.8195821,GNS,"Gainesville, GA"
-12603541.14,6180762.433,TRAIN,,400 Highway 49 North,,East Glacier Park,MT,59434, 400 Highway 49 North  East Glacier Park MT 59434 ,48.488626,-113.2569543,GPK,"East Glacier Park, MT"
-11792687.4,4878184.734,TRAIN,,438 Railroad Avenue,,Granby,CO,80446, 438 Railroad Avenue  Granby CO 80446 ,40.0841356,-105.935498,GRA,"Granby, CO"
-12263538.33,4720532.145,TRAIN,,250 South Broadway,,Green River,UT,84525, 250 South Broadway  Green River UT 84525 ,38.9924432,-110.1651437,GRI,"Green River, UT"
-8881857.448,4310230.564,TRAIN,,236 East Washington Street,,Greensboro,NC,27401, 236 East Washington Street  Greensboro NC 27401 ,36.0692113,-79.7880786,GRO,"Greensboro, NC"
-9537013.762,5305245.988,TRAIN,,440 Century Avenue SW,,Grand Rapids,MI,49503, 440 Century Avenue SW  Grand Rapids MI 49503 ,42.9556801,-85.6723122,GRR,"Grand Rapids, MI"
-9174227.707,4144636.26,TRAIN,,1120 West Washington Street,,Greenville,SC,29601, 1120 West Washington Street  Greenville SC 29601 ,34.8585515,-82.4135657,GRV,"Greenville, SC"
-11947167.16,4800461.535,TRAIN,,413 7th Street,,Glenwood Springs,CO,81601, 413 7th Street  Glenwood Springs CO 81601 ,39.5480187,-107.323191,GSC,"Glenwood Springs, CO"
-13340873.37,4087731.523,TRAIN,,25 South La Patera Lane,,Goleta,CA,93117, 25 South La Patera Lane  Goleta CA 93117 ,34.4376026,-119.8429508,GTA,"Goleta, CA"
-13422172.01,4158844.866,TRAIN,,330 Guadalupe Street,,Guadalupe,CA,93434, 330 Guadalupe Street  Guadalupe CA 93434 ,34.9629155,-120.5734858,GUA,"Guadalupe, CA"
-13428389.88,4180372.785,TRAIN,,180 West Grand Avenue,,Grover Beach,CA,93433, 180 West Grand Avenue  Grover Beach CA 93433 ,35.1211896,-120.6293751,GVB,"Grover Beach, CA"
-10038397.59,3964151.906,TRAIN,,Carrollton Avenue and East Gibson Street,,Greenwood,MS,38930, Carrollton Avenue and East Gibson Street  Greenwood MS 38930 ,33.5171152,-90.1763225,GWD,"Greenwood, MS"
-8872076.685,4148083.557,TRAIN,,2 Main Street,,Hamlet,NC,28345, 2 Main Street  Hamlet NC 28345 ,34.8836323,-79.6990522,HAM,"Hamlet, NC"
-8558048.571,4904097.24,TRAIN,,4th and Chestnut Streets,,Harrisburg,PA,17101, 4th and Chestnut Streets  Harrisburg PA 17101 ,40.2622118,-76.8776627,HAR,"Harrisburg, PA"
-10952451.14,4951215.53,TRAIN,,501 West First Street,,Hastings,NE,68901, 501 West First Street  Hastings NE 68901 ,40.5841321,-98.38763,HAS,"Hastings, NE"
-12209339.7,6199599.975,TRAIN,,235 Main Street,,Havre,MT,59501, 235 Main Street  Havre MT 59501 ,48.5546259,-109.6783908,HAV,"Havre, MT"
-13592030.81,4532349.945,TRAIN,,22555 Meekland Avenue,,Hayward,CA,94541, 22555 Meekland Avenue  Hayward CA 94541 ,37.6659579,-122.0993518,HAY,"Hayward, CA"
-10062653.32,3745121.218,TRAIN,,North Ragsdale Avenue and East Conway Street,,Hazlehurst,MS,39083, North Ragsdale Avenue and East Conway Street  Hazlehurst MS 39083 ,31.8631484,-90.3943616,HAZ,"Hazlehurst, MS"
-9939324.204,3675279.984,TRAIN,,308 Newman Street,,Hattiesburg,MS,39401, 308 Newman Street  Hattiesburg MS 39401 ,31.3276725,-89.2858805,HBG,"Hattiesburg, MS"
-10178226.53,4679829.698,TRAIN,,301 Wharf Street,,Hermann,MO,65041, 301 Wharf Street  Hermann MO 65041 ,38.7073149,-91.4324647,HEM,"Hermann, MO"
-12340200.3,4820133.792,TRAIN,,1 Depot Street,,Helper,UT,84526, 1 Depot Street  Helper UT 84526 ,39.6839805,-110.8537552,HER,"Helper, UT"
-8090846.986,5126404.924,TRAIN,,One Union Place,,Hartford,CT,6103, One Union Place  Hartford CT 6103 ,41.7691586,-72.6811698,HFD,"Hartford, CT"
-8652984.304,4768254.801,TRAIN,,Potomac Street & Shenandoah Street,,Harpers Ferry,WV,25425, Potomac Street & Shenandoah Street  Harpers Ferry WV 25425 ,39.3232101,-77.7297743,HFY,"Harpers Ferry, WV"
-8684231.926,4936479.287,TRAIN,,Fourth and Allegheny Streets,,Huntingdon,PA,16652, Fourth and Allegheny Streets  Huntingdon PA 16652 ,40.483665,-78.01178,HGD,"Huntingdon, PA"
-7913299.137,5277530.079,TRAIN,,Washington Street at Railroad Square,,Haverhill,MA,1832, Washington Street at Railroad Square  Haverhill MA 1832 ,42.77268,-71.0858893,HHL,"Haverhill, MA"
-9004882.454,4533621.645,TRAIN,,100 Second Avenue,,Hinton,WV,25951, 100 Second Avenue  Hinton WV 25951 ,37.6747772,-80.8922735,HIN,"Hinton, WV"
-11061956.93,4929494.559,TRAIN,,100 West Avenue,,Holdrege,NE,68949, 100 West Avenue  Holdrege NE 68949 ,40.4361094,-99.371292,HLD,"Holdrege, NE"
-8082052.189,5191611.542,TRAIN,,74 Main Street,,Holyoke,MA,1041, 74 Main Street  Holyoke MA 1041 ,42.2041539,-72.602311,HLK,"Holyoke, MA"
-10070203.23,3568911.835,TRAIN,,404 N.W. Railroad Avenue,,Hammond,LA,70401, 404 N.W. Railroad Avenue  Hammond LA 70401 ,30.5072065,-90.4621964,HMD,"Hammond, LA"
-9741180.88,5114828.813,TRAIN,,1135 North Calumet Avenue,,Hammond,IN,46320, 1135 North Calumet Avenue  Hammond IN 46320 ,41.6911269,-87.5066324,HMI,"Hammond-Whiting, IN"
-9759234.011,5095660.822,TRAIN,,18015 Park Avenue,,Homewood,IL,60430, 18015 Park Avenue  Homewood IL 60430 ,41.5627893,-87.6680631,HMW,"Homewood, IL"
-13319580.64,4345583.154,TRAIN,,200 Santa Fe Avenue #A,,Hanford,CA,93230, 200 Santa Fe Avenue #A  Hanford CA 93230 ,36.325931,-119.6519535,HNF,"Hanford, CA"
-8924248.323,3000523.391,TRAIN,,3001 Hollywood Boulevard,,Hollywood,FL,33021, 3001 Hollywood Boulevard  Hollywood FL 33021 ,26.0113617,-80.1677251,HOL,"Hollywood, FL"
-9584225.039,5280229.619,TRAIN,,171 Lincoln Avenue,,Holland,MI,49423, 171 Lincoln Avenue  Holland MI 49423 ,42.7910624,-86.0964176,HOM,"Holland, MI"
-10418642.03,3984432.109,TRAIN,,100 East Division Street,,Hope,AR,71801, 100 East Division Street  Hope AR 71801 ,33.6689789,-93.5923037,HOP,"Hope, AR"
-10616265.21,3473666.974,TRAIN,Amtrak Station,902 Washington Avenue,,Houston,TX,77002,Amtrak Station 902 Washington Avenue  Houston TX 77002 ,29.7674,-95.3675056,HOS,"Houston, TX"
-8906238.316,4294724.825,TRAIN,,100 West High Avenue,,High Point,NC,27260, 100 West High Avenue  High Point NC 27260 ,35.9572874,-80.00611,HPT,"High Point, NC"
-8215125.779,5199088.571,TRAIN,,69 South Front Street,,Hudson,NY,12534, 69 South Front Street  Hudson NY 12534 ,42.2540423,-73.7977469,HUD,"Hudson, NY"
-9177149.757,4638335.982,TRAIN,,1050 8th Avenue,,Huntington,WV,25701, 1050 8th Avenue  Huntington WV 25701 ,38.4159306,-82.4396658,HUN,"Huntington, WV"
-10901688.08,4587299.977,TRAIN,,North Walnut Street & East 3rd Avenue,,Hutchinson,KS,67501, North Walnut Street & East 3rd Avenue  Hutchinson KS 67501 ,38.0559773,-97.9302107,HUT,"Hutchinson, KS"
-10511868.17,4734130.348,TRAIN,,600 South Grand Avenue,,Independence,MO,64050, 600 South Grand Avenue  Independence MO 64050 ,39.0868362,-94.4296642,IDP,"Independence, MO"
-9591334.985,4831415.581,TRAIN,,350 South Illinois Street,,Indianapolis,IN,46225, 350 South Illinois Street  Indianapolis IN 46225 ,39.7618099,-86.160514,IND,"Indianapolis, IN"
-13106056.32,3982807.991,TRAIN,,15215 Barranca Parkway,,Irvine,CA,92618, 15215 Barranca Parkway  Irvine CA 92618 ,33.6567497,-117.7325524,IRV,"Irvine, CA"
-10040009.71,3802862.223,TRAIN,,300 West Capitol Street,,Jackson,MS,39201, 300 West Capitol Street  Jackson MS 39201 ,32.3009964,-90.1910278,JAN,"Jackson, MS"
-9097462.519,3550632.286,TRAIN,,3570 Clifford Lane,,Jacksonville,FL,32209, 3570 Clifford Lane  Jacksonville FL 32209 ,30.3654819,-81.7239576,JAX,"Jacksonville, FL"
-10260307.75,4661527.588,TRAIN,,101 Jefferson Street,,Jefferson City,MO,65101, 101 Jefferson Street  Jefferson City MO 65101 ,38.5787935,-92.1700349,JEF,"Jefferson City, MO"
-9804880.136,5090038.858,TRAIN,,90 East Jefferson Street,,Joliet,IL,60432, 90 East Jefferson Street  Joliet IL 60432 ,41.5245315,-88.0788927,JOL,"Joliet, IL"
-9115082.179,3711649.469,TRAIN,,176 Northwest Broad Street,,Jesup,GA,31545, 176 Northwest Broad Street  Jesup GA 31545 ,31.6059006,-81.881888,JSP,"Jesup, GA"
-8785556.738,4913969.254,TRAIN,,47 Walnut Street,,Johnstown,PA,15901, 47 Walnut Street  Johnstown PA 15901 ,40.3297964,-78.9218407,JST,"Johnstown, PA"
-9395328.824,5198219.548,TRAIN,,501 East Michigan Avenue,,Jackson,MI,49201, 501 East Michigan Avenue  Jackson MI 49201 ,42.2479606,-84.3997425,JXN,"Jackson, MI"
-9527169.881,5205311.543,TRAIN,,459 North Burdick Street,,Kalamazoo,MI,49007, 459 North Burdick Street  Kalamazoo MI 49007 ,42.295004,-85.5839211,KAL,"Kalamazoo, MI"
-8975126.286,4231515.997,TRAIN,,201 South Main Street,,Kannapolis,NC,28081, 201 South Main Street  Kannapolis NC 28081 ,35.495981,-80.6246698,KAN,"Kannapolis, NC"
-10529169.22,4733794.611,TRAIN,Union Station,30 West Pershing Road,,Kansas City,MO,64108,Union Station 30 West Pershing Road  Kansas City MO 64108 ,39.0845636,-94.5858465,KCY,"Kansas City, MO"
-10010689.11,5048660.937,TRAIN,,210 West Third Street,,Kewanee,IL,61443, 210 West Third Street  Kewanee IL 61443 ,41.2459817,-89.9275679,KEE,"Kewanee, IL"
-13682615.98,5803177.389,TRAIN,,501 South First Avenue,,Kelso,WA,98626, 501 South First Avenue  Kelso WA 98626 ,46.1421993,-122.9132654,KEL,"Kelso-Longview, WA"
-13555593.22,5194820.487,TRAIN,,1600 Oak Avenue,,Klamath Falls,OR,97601, 1600 Oak Avenue  Klamath Falls OR 97601 ,42.2254674,-121.7718313,KFS,"Klamath Falls, OR"
-7966089.297,5083990.985,TRAIN,,1 Railroad Avenue,,West Kingston,RI,2892, 1 Railroad Avenue  West Kingston RI 2892 ,41.4839444,-71.5597505,KIN,"Kingston, RI"
-9061878.223,3286071.092,TRAIN,,111 East Dakin Avenue,,Kissimmee,FL,34741, 111 East Dakin Avenue  Kissimmee FL 34741 ,28.2937183,-81.4042227,KIS,"Kissimmee, FL"
-9781135.566,5029949.425,TRAIN,,199 South East Avenue,,Kankakee,IL,60901, 199 South East Avenue  Kankakee IL 60901 ,41.1191392,-87.865755,KKI,"Kankakee, IL"
-12696302.69,4189497.749,TRAIN,,402 Andy Devine,,Kingman,AZ,86401, 402 Andy Devine  Kingman AZ 86401 ,35.1883114,-114.0527949,KNG,"Kingman, AZ"
-8886526.843,3983759.271,TRAIN,,101 East Main St.,,Kingstree,SC,29556, 101 East Main St.  Kingstree SC 29556 ,33.6636228,-79.8291053,KTR,"Kingstree, SC"
-10064035.29,4661840.454,TRAIN,,110 West Argonne Drive,,Kirkwood,MO,63122, 110 West Argonne Drive  Kirkwood MO 63122 ,38.5809396,-90.4068049,KWD,"Kirkwood, MO"
-8837107.363,4912175.646,TRAIN,Amtrak Station,329 McKinley Avenue,,Latrobe,PA,15650,Amtrak Station 329 McKinley Avenue  Latrobe PA 15650 ,40.3181558,-79.3852548,LAB,"Latrobe, PA"
-9673208.052,4927070.2,TRAIN,Amtrak Station,200 North Second Street,,Lafayette,IN,47901,Amtrak Station 200 North Second Street  Lafayette IN 47901 ,40.4194336,-86.8961551,LAF,"Lafayette, IN"
-9781816.292,5133403.364,TRAIN,,25 West Burlington Avenue,,La Grange,IL,60525, 25 West Burlington Avenue  La Grange IL 60525 ,41.8157661,-87.8710464,LAG,"La Grange, IL"
-11526419.22,4577766.808,TRAIN,,1 West First Street,,La Junta,CO,81050, 1 West First Street  La Junta CO 81050 ,37.9883504,-103.5432101,LAJ,"La Junta, CO"
-9122841.246,3254725.159,TRAIN,To/from points north,600 East Main Street,,Lakeland,FL,33801,To/from points north 600 East Main Street  Lakeland FL 33801 ,28.0455608,-81.9518048,LAK,"Lakeland, FL"
-10296317.18,4870190.415,TRAIN,,535 North Owensby Street,,La Plata,MO,63549, 535 North Owensby Street  La Plata MO 63549 ,40.0291396,-92.4939023,LAP,"La Plata, MO"
-9921676.722,3722971.139,TRAIN,,230 North Maple Street,,Laurel,MS,39440, 230 North Maple Street  Laurel MS 39440 ,31.6923079,-89.1280551,LAU,"Laurel, MS"
-13162059.28,4036348.374,TRAIN,Union Station,800 North Alameda Street,,Los Angeles,CA,90012,Union Station 800 North Alameda Street  Los Angeles CA 90012 ,34.056219,-118.2365021,LAX,"Los Angeles, CA"
-10376873.81,3534196.283,TRAIN,,100 Ryan Street,,Lake Charles,LA,70601, 100 Ryan Street  Lake Charles LA 70601 ,30.2381393,-93.2175,LCH,"Lake Charles, LA"
-9947850.011,4887502.669,TRAIN,,103 North Chicago Street,,Lincoln,IL,62656, 103 North Chicago Street  Lincoln IL 62656 ,40.1478763,-89.3635878,LCN,"Lincoln, IL"
-12101211.81,3809351.661,TRAIN,,Center Street and East Motel Drive,,Lordsburg,NM,88045, Center Street and East Motel Drive  Lordsburg NM 88045 ,32.3483528,-108.7029743,LDB,"Lordsburg, NM"
-10506108.6,4709164.28,TRAIN,,217 SW Main Street,,Lee's Summit,MO,64063, 217 SW Main Street  Lee's Summit MO 64063 ,38.9125834,-94.3782651,LEE,"Lee's Summit, MO"
-8636171.614,4951806.864,TRAIN,Amtrak Station,150 Helen Street,,Lewistown,PA,17044,Amtrak Station 150 Helen Street  Lewistown PA 17044 ,40.5882076,-77.5803459,LEW,"Lewistown, PA"
-8933563.696,4276000.315,TRAIN,,29 South Railroad Street,,Lexington,NC,27292, 29 South Railroad Street  Lexington NC 27292 ,35.821115,-80.2515753,LEX,"Lexington Barbeque Festival, NC"
-10243010.09,3532704.539,TRAIN,,100 Lee Avenue,,Lafayette,LA,70501, 100 Lee Avenue  Lafayette LA 70501 ,30.226716,-92.0142725,LFT,"Lafayette, LA"
-12862845.14,6172796.735,TRAIN,,100 Mineral Avenue,,Libby,MT,59923, 100 Mineral Avenue  Libby MT 59923 ,48.3949386,-115.548857,LIB,"Libby, MT"
-9122841.246,3254725.159,TRAIN,To/from points south,600 East Main Street,,Lakeland,FL,33801,To/from points south 600 East Main Street  Lakeland FL 33801 ,28.0455608,-81.9518048,LKL,"Lakeland, FL"
-11423448.45,4592095.181,TRAIN,,109 E Beech Street,,Lamar,CO,81052, 109 E Beech Street  Lamar CO 81052 ,38.0897221,-102.6184143,LMR,"Lamar, CO"
-11786505.22,4229437.866,TRAIN,,152 Old Lamy Trail,,Lamy,NM,87540, 152 Old Lamy Trail  Lamy NM 87540 ,35.4808573,-105.8799726,LMY,"Lamy, NM"
-8494536.104,4873820.011,TRAIN,,53 McGovern Avenue,,Lancaster,PA,17602, 53 McGovern Avenue  Lancaster PA 17602 ,40.0545383,-76.3079591,LNC,"Lancaster, PA"
-10766061.75,4985221.546,TRAIN,,277 Pinnacle Arena Drive,,Lincoln,NE,68508, 277 Pinnacle Arena Drive  Lincoln NE 68508 ,40.8158468,-96.7139261,LNK,"Lincoln, NE"
-9406048.009,5269258.598,TRAIN,,1240 South Harrison Road,,East Lansing,MI,48823, 1240 South Harrison Road  East Lansing MI 48823 ,42.7189231,-84.4959165,LNS,"East Lansing, MI"
-13499926.16,4598260.489,TRAIN,,24 South Sacramento Street,,Lodi,CA,95240, 24 South Sacramento Street  Lodi CA 95240 ,38.1334473,-121.2716561,LOD,"Lodi, CA"
-8596196.203,4679952.473,TRAIN,Auto Train Station,8006 Lorton Road,,Lorton,VA,22079,Auto Train Station 8006 Lorton Road  Lorton VA 22079 ,38.7085828,-77.220836,LOR,"Lorton, VA"
-9273599.151,5319513.598,TRAIN,,73 Howard Street,,Lapeer,MI,48446, 73 Howard Street  Lapeer MI 48446 ,43.0494603,-83.3061702,LPE,"Lapeer, MI"
-13425688.7,4120845.699,TRAIN,,Ocean Ave and Park Rd,,Surf,CA,93437, Ocean Ave and Park Rd  Surf CA 93437 ,34.6827224,-120.6038153,LPS,"Lompoc-Surf, CA"
-10601015.96,4717543.182,TRAIN,,413 East 7th Street,,Lawrence,KS,66044, 413 East 7th Street  Lawrence KS 66044 ,38.9714079,-95.2307051,LRC,"Lawrence, KS"
-10273318.63,4130000.059,TRAIN,Union Station,1400 West Markham Street,,Little Rock,AR,72201,Union Station 1400 West Markham Street  Little Rock AR 72201 ,34.7503872,-92.2871472,LRK,"Little Rock, AR"
-10157603.53,5439659.962,TRAIN,,601 St. Andrew Street,,La Crosse,WI,54601, 601 St. Andrew Street  La Crosse WI 54601 ,43.8334087,-91.2469548,LSE,"La Crosse, WI"
-11712234.07,4244822.284,TRAIN,,500 Railroad Avenue at Lincoln,,Las Vegas,NM,87701, 500 Railroad Avenue at Lincoln  Las Vegas NM 87701 ,35.5934675,-105.2126703,LSV,"Las Vegas, NM"
-13499010.11,4550980.583,TRAIN,,17800 Shideler Parkway,,Manteca,CA,95330, 17800 Shideler Parkway  Manteca CA 95330 ,37.7985118,-121.2648304,LTM,"Lathrop-Manteca, CA"
-10545109.35,3828336.907,TRAIN,,905 Pacific Avenue,,Longview,TX,75602, 905 Pacific Avenue  Longview TX 75602 ,32.493358,-94.728873,LVW,"Longview, TX"
-13430026.38,6041638.152,TRAIN,Icicle Station,11645 North Road,,Leavenworth,WA,98826,Icicle Station 11645 North Road  Leavenworth WA 98826 ,47.6060305,-120.6432535,LWA,"Leavenworth, WA"
-8811709.904,4495912.617,TRAIN,,825 Kemper Street,,Lynchburg,VA,24501, 825 Kemper Street  Lynchburg VA 24501 ,37.4064294,-79.157102,LYH,"Lynchburg, VA"
-10093443.59,4933193.543,TRAIN,,120 East Calhoun Street,,Macomb,IL,61455, 120 East Calhoun Street  Macomb IL 61455 ,40.4613496,-90.6709674,MAC,"Macomb, IL"
-12008284.41,6167037.467,TRAIN,,51 South 1st Street East,,Malta,MT,59538, 51 South 1st Street East  Malta MT 59538 ,48.3604752,-107.8723632,MAL,"Malta, MT"
-9837976.967,4791057.354,TRAIN,,1718 Broadway Avenue,,Mattoon,IL,61938, 1718 Broadway Avenue  Mattoon IL 61938 ,39.4830269,-88.3758911,MAT,"Mattoon, IL"
-9325353.783,4671967.6,TRAIN,,West Front Street & Rosemary Clooney Street,,Maysville,KY,41056, West Front Street & Rosemary Clooney Street  Maysville KY 41056 ,38.6520483,-83.7712302,MAY,"Maysville, KY"
-10068997.09,3664539.44,TRAIN,,114 North Railroad Avenue,,McComb,MS,39648, 114 North Railroad Avenue  McComb MS 39648 ,31.2445453,-90.4512318,MCB,"McComb, MS"
-13411418.02,4482011.774,TRAIN,,324 West 24th Street,,Merced,CA,95340, 324 West 24th Street  Merced CA 95340 ,37.3073335,-120.4767827,MCD,"Merced, CA"
-10843048.69,3690462.398,TRAIN,,1 Amtrak Boulevard,,McGregor,TX,76657, 1 Amtrak Boulevard  McGregor TX 76657 ,31.4434332,-97.4047425,MCG,"McGregor, TX"
-9674263.82,5119294.321,TRAIN,,100 Washington Street,,Michigan City,IN,46360, 100 Washington Street  Michigan City IN 46360 ,41.7211289,-86.9054355,MCI,"Michigan City, IN"
-11201612.94,4894704.602,TRAIN,,101 Norris Avenue,,McCook,NE,69001, 101 Norris Avenue  McCook NE 69001 ,40.1975275,-100.6255059,MCK,"McCook, NE"
-8104134.528,5092230.597,TRAIN,,60 State Street,,Meriden,CT,6450, 60 State Street  Meriden CT 6450 ,41.5388032,-72.8013829,MDN,"Meriden, CT"
-13366687.05,4442240.121,TRAIN,,18770 Road 26,,Madera,CA,93638, 18770 Road 26  Madera CA 93638 ,37.0225649,-120.0751331,MDR,"Madera, CA"
-9920562.16,5093747.436,TRAIN,,783 Main Street,,Mendota,IL,61342, 783 Main Street  Mendota IL 61342 ,41.5497166,-89.1179242,MDT,"Mendota, IL"
-9873657.38,3811209.363,TRAIN,Union Station,1901 Front Street,,Meridian,MS,39301,Union Station 1901 Front Street  Meridian MS 39301 ,32.3639846,-88.6964846,MEI,"Meridian, MS"
-10025334.81,4181897.141,TRAIN,Central Station,545 South Main Street,Main and Carolina Entrance,Memphis,TN,38103,Central Station 545 South Main Street Main and Carolina Entrance Memphis TN 38103 ,35.1320698,-90.0593765,MEM,"Memphis, TN"
-8274331.502,4948838.485,TRAIN,,100 Middlesex-Essex Turnpike,,Iselin,NJ,8830, 100 Middlesex-Essex Turnpike  Iselin NJ 8830 ,40.5680011,-74.3282034,MET,"Metropark, NJ"
-10504886.6,3835930.522,TRAIN,,800 North Washington Street,,Marshall,TX,75670, 800 North Washington Street  Marshall TX 75670 ,32.551786,-94.3541505,MHL,"Marshall, TX"
-8934253.165,2980460.044,TRAIN,,8303 NW 37th Avenue,,Miami,FL,33147, 8303 NW 37th Avenue  Miami FL 33147 ,25.8495533,-80.2580065,MIA,"Miami, FL"
-8541649.757,4893966.642,TRAIN,,Union Street and Mill Street,,Middletown,PA,17057, Union Street and Mill Street  Middletown PA 17057 ,40.1933124,-76.7317199,MID,"Middletown, PA"
-10629798.79,3850532.818,TRAIN,,115 East Front Street,,Mineola,TX,75773, 115 East Front Street  Mineola TX 75773 ,32.6620859,-95.4890667,MIN,"Mineola, TX"
-8516324.564,4881819.715,TRAIN,,25 South Market Street,,Mount Joy,PA,17552, 25 South Market Street  Mount Joy PA 17552 ,40.1090299,-76.5034212,MJY,"Mount Joy, PA"
-9787695.534,5302933.561,TRAIN,General Mitchell Int'l Airport,5601 South 6th Street,,Milwaukee,WI,53221,General Mitchell Int'l Airport 5601 South 6th Street  Milwaukee WI 53221 ,42.9405723,-87.9247385,MKA,"Milwaukee Airport-Trains, WI"
-9786887.912,5317228.538,TRAIN,Intermodal Station,433 West St. Paul Avenue,,Milwaukee,WI,53203,Intermodal Station 433 West St. Paul Avenue  Milwaukee WI 53203 ,43.0344507,-87.9175649,MKE,"Milwaukee-Downtown, WI"
-10049071.8,4063529.38,TRAIN,,285 Cherry St,,Marks,MS,38646, 285 Cherry St  Marks MS 38646 ,34.258524,-90.2723836,MKS,"Marks, MS"
-9052950.006,4604991.354,TRAIN,,Third Avenue and Washington Street,,Montgomery,WV,25136, Third Avenue and Washington Street  Montgomery WV 25136 ,38.1807527,-81.3239602,MNG,"Montgomery, WV"
-13459965.35,4532765.382,TRAIN,,1700 Held Drive,,Modesto,CA,95355, 1700 Held Drive  Modesto CA 95355 ,37.6689891,-120.912752,MOD,"Modesto, CA"
-11276504.95,6146222.188,TRAIN,,400 1st Avenue S.W.,,Minot,ND,58701, 400 1st Avenue S.W.  Minot ND 58701 ,48.2361133,-101.2986811,MOT,"Minot, ND"
-13233446.36,4067103.381,TRAIN,,300 High Street,,Moorpark,CA,93021, 300 High Street  Moorpark CA 93021 ,34.2848664,-118.8780516,MPK,"Moorpark, CA"
-8082506.945,5505107.003,TRAIN,,297 Junction Road,,Montpelier,VT,5602, 297 Junction Road  Montpelier VT 5602 ,44.2563836,-72.6066961,MPR,"Montpelier-Berlin, VT"
-8678580.672,4787586.537,TRAIN,,229 East Martin Street,,Martinsburg,WV,25401, 229 East Martin Street  Martinsburg WV 25401 ,39.4585954,-77.9608819,MRB,"Martinsburg, WV"
-12473031.46,3902777.781,TRAIN,,19427 North John Wayne Parkway,,Maricopa,AZ,85139, 19427 North John Wayne Parkway  Maricopa AZ 85139 ,33.0561582,-112.0475206,MRC,"Maricopa, AZ"
-10362215.18,5613286.8,TRAIN,Union Depot,240 Kellogg Boulevard East,,St. Paul,MN,55101,Union Depot 240 Kellogg Boulevard East  St. Paul MN 55101 ,44.94703,-93.0854459,MSP,"St. Paul-Minneapolis, MN"
-8624208.092,4685937.316,TRAIN,,9431 West Street,,Manassas,VA,20110, 9431 West Street  Manassas VA 20110 ,38.750134,-77.4727294,MSS,"Manassas, VA"
-10191386.08,5008092.604,TRAIN,,418 North Adams Street,,Mount Pleasant,IA,52641, 418 North Adams Street  Mount Pleasant IA 52641 ,40.9712103,-91.5504888,MTP,"Mount Pleasant, IA"
-8189303.904,5700611.027,TRAIN,Gare Centrale / Central Station,895 rue de la Gauchetiere ouest,,Montreal,QC,H3B 4G1,Gare Centrale / Central Station 895 rue de la Gauchetiere ouest  Montreal QC H3B 4G1 ,45.5001121,-73.5665224,MTR,"Montreal, QC"
-13596428.71,4582099.765,TRAIN,,601 Marina Vista Avenue,,Martinez,CA,94553, 601 Marina Vista Avenue  Martinez CA 94553 ,38.0190895,-122.1388315,MTZ,"Martinez, CA"
-10332009.96,4077984.651,TRAIN,,200 East First Street,,Malvern,AR,72104, 200 East First Street  Malvern AR 72104 ,34.3656614,-92.8137611,MVN,"Malvern, AR"
-13618242.42,6176758.8,TRAIN,,105 East Kincaid Street,,Mount Vernon,WA,98273, 105 East Kincaid Street  Mount Vernon WA 98273 ,48.4185933,-122.3349576,MVW,"Mount Vernon, WA"
-8010894.961,5064244.22,TRAIN,,2 Roosevelt Avenue,,Mystic,CT,6355, 2 Roosevelt Avenue  Mystic CT 6355 ,41.3514414,-71.9632425,MYS,"Mystic, CT"
-8287320.487,4938361.228,TRAIN,,French and Albany Streets,,New Brunswick,NJ,8901, French and Albany Streets  New Brunswick NJ 8901 ,40.4956355,-74.4475151,NBK,"New Brunswick, NJ"
-9936630.414,4316142.261,TRAIN,,108 Jefferson St,,Newbern,TN,38059, 108 Jefferson St  Newbern TN 38059 ,36.1125342,-89.2624417,NBN,"Newbern-Dyersburg, TN"
-9656496.891,5130569.178,TRAIN,,226 North Whittaker Street,,New Buffalo,MI,49117, 226 North Whittaker Street  New Buffalo MI 49117 ,41.7964959,-86.7460496,NBU,"New Buffalo, MI"
-8557295.819,4714240.898,TRAIN,,4300 Garden City Drive,,New Carrollton,MD,20784, 4300 Garden City Drive  New Carrollton MD 20784 ,38.9484629,-76.8719272,NCR,"New Carrollton, MD"
-12757903.78,4142243.234,TRAIN,,950 Front Street,,Needles,CA,92363, 950 Front Street  Needles CA 92363 ,34.8409004,-114.6063667,NDL,"Needles, CA"
-10836384.04,4586065.013,TRAIN,,414 North Main Street,,Newton,KS,67114, 414 North Main Street  Newton KS 67114 ,38.0471419,-97.3444822,NEW,"Newton, KS"
-8491027.403,4417317.377,TRAIN,,280 Park Avenue,,Norfolk,VA,23510, 280 Park Avenue  Norfolk VA 23510 ,36.8434974,-76.2761063,NFK,"Norfolk, VA"
-8800393.429,5328717.253,TRAIN,,825 Depot Avenue West,,Niagara Falls,NY,14305, 825 Depot Avenue West  Niagara Falls NY 14305 ,43.1098877,-79.0549276,NFL,"Niagara Falls, NY"
-8801285.655,5328538.544,TRAIN,,4267 Bridge Street,,Niagara Falls,ON,L2E 2R6, 4267 Bridge Street  Niagara Falls ON L2E 2R6 ,43.1087882,-79.0633085,NFS,"Niagara Falls, ON"
-8084731.651,5208864.44,TRAIN,,170 Pleasant Street,,Northampton,MA,1060, 170 Pleasant Street  Northampton MA 1060 ,42.3188531,-72.6264399,NHT,"Northampton, MA"
-8118159.896,5056355.33,TRAIN,Union Station,50 Union Avenue,,New Haven,CT,6519,Union Station 50 Union Avenue  New Haven CT 6519 ,41.2976504,-72.9266318,NHV,"New Haven, CT"
-10221780.34,3504632.249,TRAIN,,402 West Washington Street,,New Iberia,LA,70560, 402 West Washington Street  New Iberia LA 70560 ,30.0084647,-91.8239291,NIB,"New Iberia, LA"
-8025381.194,5064738.49,TRAIN,Union Station,27 Water Street,,New London,CT,6320,Union Station 27 Water Street  New London CT 6320 ,41.3541878,-72.0931392,NLC,"New London, CT"
-9601570.725,5136656.762,TRAIN,,598 Dey Street,,Niles,MI,49120, 598 Dey Street  Niles MI 49120 ,41.8373246,-86.2523252,NLS,"Niles, MI"
-10027470.11,3496622.149,TRAIN,Union Passenger Terminal,1001 Loyola Avenue,,New Orleans,LA,70113,Union Passenger Terminal 1001 Loyola Avenue  New Orleans LA 70113 ,29.9462348,-90.0786902,NOL,"New Orleans, LA"
-10847307.46,4193814.399,TRAIN,,200 South Jones Avenue,,Norman,OK,73069, 200 South Jones Avenue  Norman OK 73069 ,35.2199095,-97.4428891,NOR,"Norman, OK"
-8510594.594,4442276.704,TRAIN,,9304 Warwick Boulevard,,Newport News,VA,23601, 9304 Warwick Boulevard  Newport News VA 23601 ,37.0228069,-76.4518575,NPN,"Newport News, VA"
-9812312.498,5128009.883,TRAIN,,105 E. Fourth Ave.,,Naperville,IL,60540, 105 E. Fourth Ave.  Naperville IL 60540 ,41.7798754,-88.1459757,NPV,"Naperville, IL"
-8432842.709,4818058.567,TRAIN,,10 Mopar Drive,,Newark,DE,19713, 10 Mopar Drive  Newark DE 19713 ,39.6697388,-75.7535302,NRK,"Newark, DE"
-8213634.088,4999290.69,TRAIN,,1 Railroad Plaza,,New Rochelle,NY,10801, 1 Railroad Plaza  New Rochelle NY 10801 ,40.9122131,-73.7838972,NRO,"New Rochelle, NY"
-8761544.64,4272341.818,TRAIN,,1025 Blue Ridge Road,,North Carolina State Fair,NC,27607, 1025 Blue Ridge Road  North Carolina State Fair NC 27607 ,35.7940226,-78.7062868,NSF,"North Carolina State Fair, NC"
-8255982.372,4973290.474,TRAIN,Penn Station,1 Raymond Plaza West,,Newark,NJ,7102,Penn Station 1 Raymond Plaza West  Newark NJ 7102 ,40.7345989,-74.1639867,NWK,"Newark, NJ"
-8237025.659,4975585.626,TRAIN,Moynihan Train Hall at Penn Sta.,351 West 31st Street,,New York,NY,10001,Moynihan Train Hall at Penn Sta. 351 West 31st Street  New York NY 10001 ,40.7517137,-73.9957489,NYP,"New York, NY"
-13603036.97,4544521.68,TRAIN,Coliseum/Airport Station,700 73rd Avenue,,Oakland,CA,94621,Coliseum/Airport Station 700 73rd Avenue  Oakland CA 94621 ,37.752481,-122.198218,OAC,"Oakland, CA"
-10855070.44,4227321.538,TRAIN,,100 South E.K. Gaylord Boulevard,,Oklahoma City,OK,73102, 100 South E.K. Gaylord Boulevard  Oklahoma City OK 73102 ,35.464182,-97.5132935,OKC,"Oklahoma City, OK"
-8998045.156,3154975.229,TRAIN,,801 North Parrott Avenue,,Okeechobee,FL,34972, 801 North Parrott Avenue  Okeechobee FL 34972 ,27.2519111,-80.8302856,OKE,"Okeechobee, FL"
-13611221.18,4550347.477,TRAIN,Jack London Square Station,245 Second Street,,Oakland,CA,94607,Jack London Square Station 245 Second Street  Oakland CA 94607 ,37.7937975,-122.2714882,OKJ,"Oakland, CA"
-8870203.688,5381547.654,TRAIN,,200 Cross Avenue,,Oakville,ON,L6J 2W6, 200 Cross Avenue  Oakville ON L6J 2W6 ,43.4551648,-79.683186,OKL,"Oakville, ON"
-13046653.77,3862865.121,TRAIN,Old Town Transportation Center,4005 Taylor Street,,San Diego,CA,92110,Old Town Transportation Center 4005 Taylor Street  San Diego CA 92110 ,32.7552304,-117.1995263,OLT,"San Diego, CA"
-13669373.77,5940650.624,TRAIN,,6600 Yelm Highway SE,,Lacey,WA,98513, 6600 Yelm Highway SE  Lacey WA 98513 ,46.9913706,-122.7939031,OLW,"Olympia-Lacey, WA"
-10678729.36,5049262.441,TRAIN,,1003 South 9th Street,,Omaha,NE,68108, 1003 South 9th Street  Omaha NE 68108 ,41.2497909,-95.9272259,OMA,"Omaha, NE"
-13096691.46,4037086.735,TRAIN,,198 East Emporia Street,,Ontario,CA,91764, 198 East Emporia Street  Ontario CA 91764 ,34.0616303,-117.6495922,ONA,"Ontario, CA"
-7834245.579,5390589.44,TRAIN,,11 First Street,,Old Orchard Beach,ME,4064, 11 First Street  Old Orchard Beach ME 4064 ,43.5142714,-70.3761953,ORB,"Old Orchard Beach, ME"
-13647317.55,5679349.91,TRAIN,,1757 Washington Street,,Oregon City,OR,97045, 1757 Washington Street  Oregon City OR 97045 ,45.3661689,-122.5959431,ORC,"Oregon City, OR"
-9059349.267,3315444.978,TRAIN,,1400 Sligh Boulevard,,Orlando,FL,32806, 1400 Sligh Boulevard  Orlando FL 32806 ,28.5266452,-81.3820375,ORL,"Orlando, FL"
-8056950.632,5056751.846,TRAIN,,455 Boston Post Road,,Old Saybrook,CT,6475, 455 Boston Post Road  Old Saybrook CT 6475 ,41.3004096,-72.3771269,OSB,"Old Saybrook, CT"
-10437861.08,5017818.893,TRAIN,,Main & East Clay Streets,,Osceola,IA,50213, Main & East Clay Streets  Osceola IA 50213 ,41.037178,-93.7649963,OSC,"Osceola, IA"
-13066619.71,3920885.717,TRAIN,,235 South Tremont Street,,Oceanside,CA,92054, 235 South Tremont Street  Oceanside CA 92054 ,33.193086,-117.3790824,OSD,"Oceanside, CA"
-10287583.62,5015118.365,TRAIN,,210 West Main Street,,Ottumwa,IA,52501, 210 West Main Street  Ottumwa IA 52501 ,41.0187964,-92.4151203,OTM,"Ottumwa, IA"
-13266610.56,4055587.352,TRAIN,,201 East Fourth Street,,Oxnard,CA,93030, 201 East Fourth Street  Oxnard CA 93030 ,34.1993077,-119.1763131,OXN,"Oxnard, CA"
-9088176.019,3458606.122,TRAIN,,220 North 11th Street,,Palatka,FL,32177, 220 North 11th Street  Palatka FL 32177 ,29.649739,-81.6406244,PAK,"Palatka, FL"
-8402813.935,4872158.294,TRAIN,,13 Lancaster Avenue,,Paoli,PA,19301, 13 Lancaster Avenue  Paoli PA 19301 ,40.0421333,-75.4810263,PAO,"Paoli, PA"
-8451612.296,4860013.368,TRAIN,,501 Maple Street,,Parkesburg,PA,19365, 501 Maple Street  Parkesburg PA 19365 ,39.9590945,-75.9223424,PAR,"Parkesburg, PA"
-10062541.37,4404873.053,TRAIN,,400 South Main Street,,Poplar Bluff,MO,63901, 400 South Main Street  Poplar Bluff MO 63901 ,36.7539041,-90.3934147,PBF,"Poplar Bluff, MO"
-9959400.983,5069325.484,TRAIN,,107 Bicentennial Drive,,Princeton,IL,61356, 107 Bicentennial Drive  Princeton IL 61356 ,41.3852612,-89.4669248,PCT,"Princeton, IL"
-13656321.19,5705146.755,TRAIN,Union Station,800 NW Sixth Avenue,,Portland,OR,97209,Union Station 800 NW Sixth Avenue  Portland OR 97209 ,45.5290829,-122.6767744,PDX,"Portland, OR"
-8904703.252,4930783.601,TRAIN,Union Station,1100 Liberty Avenue,,Pittsburgh,PA,15222,Union Station 1100 Liberty Avenue  Pittsburgh PA 15222 ,40.4446786,-79.9915525,PGH,"Pittsburgh, PA"
-8369115.399,4859495.638,TRAIN,William H Gray III 30th St. Sta.,2955 Market Street,,Philadelphia,PA,19104,William H Gray III 30th St. Sta. 2955 Market Street  Philadelphia PA 19104 ,39.9557799,-75.1819683,PHL,"Philadelphia, PA"
-8366229.218,4865475.542,TRAIN,,2900 North Broad Street,,Philadelphia,PA,19132, 2900 North Broad Street  Philadelphia PA 19132 ,39.9973546,-75.1553817,PHN,"North Philadelphia, PA"
-9983161.493,3571163.585,TRAIN,,200 Highway 11 South,at Tate Street,Picayune,MS,39466, 200 Highway 11 South at Tate Street Picayune MS 39466 ,30.5248214,-89.6805924,PIC,"Picayune, MS"
-8154575.861,5228863.79,TRAIN,,1 Columbus Avenue,,Pittsfield,MA,1201, 1 Columbus Avenue  Pittsfield MA 1201 ,42.4514342,-73.2539845,PIT,"Pittsfield, MA"
-8307103.19,4911948.649,TRAIN,,2 Wallace Circle,,Princeton Junction,NJ,8550, 2 Wallace Circle  Princeton Junction NJ 8550 ,40.3163507,-74.6228833,PJC,"Princeton Junction, NJ"
-8176003.106,5573904.62,TRAIN,,Bridge and Dock Streets,,Plattsburgh,NY,12901, Bridge and Dock Streets  Plattsburgh NY 12901 ,44.6967124,-73.4464797,PLB,"Plattsburgh, NY"
-9856036.022,5110540.76,TRAIN,,101 West Main Street,,Plano,IL,60545, 101 West Main Street  Plano IL 60545 ,41.6620834,-88.5381684,PLO,"Plano, IL"
-9272059.709,5256243.089,TRAIN,,51000 Woodward Avenue,,Pontiac,MI,48342, 51000 Woodward Avenue  Pontiac MI 48342 ,42.6326293,-83.2921966,PNT,"Pontiac, MI"
-9959491.4,5395618.297,TRAIN,,400 West Oneida Street,,Portage,WI,53901, 400 West Oneida Street  Portage WI 53901 ,43.5470273,-89.467091,POG,"Portage, WI"
-8177391.144,5471991.455,TRAIN,,20 Park Place,,Port Henry,NY,12974, 20 Park Place  Port Henry NY 12974 ,44.0423392,-73.458803,POH,"Port Henry, NY"
-9867048.409,4994465.58,TRAIN,,711 West Water Street,,Pontiac,IL,61764, 711 West Water Street  Pontiac IL 61764 ,40.878761,-88.637025,PON,"Pontiac, IL"
-7824787.094,5412069.384,TRAIN,,100 Thompson's Point Road,,Portland,ME,4102, 100 Thompson's Point Road  Portland ME 4102 ,43.6539569,-70.2912346,POR,"Portland, ME"
-13107940.52,4036757.794,TRAIN,,100 West Commercial Street,,Pomona,CA,91768, 100 West Commercial Street  Pomona CA 91768 ,34.058725,-117.7514994,POS,"Pomona, CA"
-8230683.903,5117199.622,TRAIN,,41 Main Street,,Poughkeepsie,NY,12601, 41 Main Street  Poughkeepsie NY 12601 ,41.7056873,-73.9369972,POU,"Poughkeepsie, NY"
-13434912.54,4248827.238,TRAIN,,800 Pine Street,,Paso Robles,CA,93446, 800 Pine Street  Paso Robles CA 93446 ,35.6226739,-120.6877702,PRB,"Paso Robles, CA"
-9023635.565,4559188.161,TRAIN,,5034 Stanaford Road,,Prince,WV,25907, 5034 Stanaford Road  Prince WV 25907 ,37.856506,-81.0606181,PRC,"Prince, WV"
-8171244.418,5546907.478,TRAIN,,NY 373 and Lake Street,near Burlington-Port Kent ferry dock,Port Kent,NY,12975, NY 373 and Lake Street near Burlington-Port Kent ferry dock Port Kent NY 12975 ,44.5269193,-73.4039041,PRK,"Port Kent, NY"
-12430381.02,4898833.143,TRAIN,,300 West 600 South,,Provo,UT,84601, 300 West 600 South  Provo UT 84601 ,40.2258945,-111.6640364,PRO,"Provo, UT"
-13256786.91,5818413.196,TRAIN,,535 North 1st Avenue,,Pasco,WA,99301, 535 North 1st Avenue  Pasco WA 99301 ,46.2369156,-119.0875201,PSC,"Pasco, WA"
-12974055.65,4015046.525,TRAIN,Amtrak Station,North Indian Canyon Drive and Palm Springs Station Road,,Palm Springs,CA,92262,Amtrak Station North Indian Canyon Drive and Palm Springs Station Road  Palm Springs CA 92262 ,33.8977419,-116.5481285,PSN,"Palm Springs, CA"
-8619334.179,4472841.243,TRAIN,,3516 South Street,,Petersburg,VA,23803, 3516 South Street  Petersburg VA 23803 ,37.2416398,-77.4288964,PTB,"Petersburg, VA"
-9177602.869,5305950.419,TRAIN,,2223 16th Street,,Port Huron,MI,48060, 2223 16th Street  Port Huron MI 48060 ,42.9604991,-82.4437292,PTH,"Port Huron, MI"
-10837778.84,4165517.333,TRAIN,,East Main Street and North Santa Fe Avenue,,Purcell,OK,73080, East Main Street and North Santa Fe Avenue  Purcell OK 73080 ,35.012033,-97.357416,PUR,"Purcell, OK"
-7949712.082,5135473.274,TRAIN,Amtrak/MBTA Station,100 Gaspee Street,,Providence,RI,2903,Amtrak/MBTA Station 100 Gaspee Street  Providence RI 2903 ,41.8292499,-71.4132827,PVD,"Providence, RI"
-10822310.33,4128839.939,TRAIN,,South Santa Fe Street and East Paul Avenue,,Pauls Valley,OK,73075, South Santa Fe Street and East Paul Avenue  Pauls Valley OK 73075 ,34.741411,-97.2188546,PVL,"Pauls Valley, OK"
-8604220.669,4653415.937,TRAIN,,550 Railroad Avenue,,Quantico,VA,22134, 550 Railroad Avenue  Quantico VA 22134 ,38.5213852,-77.2936358,QAN,"Quantico, VA"
-10171098.42,4859705.814,TRAIN,,North 30th Street and Wisman Lane,,Quincy,IL,62301, North 30th Street and Wisman Lane  Quincy IL 62301 ,39.957231,-91.3675498,QCY,"Quincy, IL"
-11625973.37,4425327.298,TRAIN,,201 South First Street,,Raton,NM,87740, 201 South First Street  Raton NM 87740 ,36.9009664,-104.4379645,RAT,"Raton, NM"
-13624769.14,4951115.443,TRAIN,Amtrak Station,1620 Yuba Street,,Redding,CA,96001,Amtrak Station 1620 Yuba Street  Redding CA 96001 ,40.5837272,-122.3933311,RDD,"Redding, CA"
-10301179.9,5553488.577,TRAIN,,420 Levee Street,,Red Wing,MN,55066, 420 Levee Street  Red Wing MN 55066 ,44.5663303,-92.5370877,RDW,"Red Wing, MN"
-9702064.304,5003980.358,TRAIN,,776 North Cullen Street,,Rensselaer,IN,47978, 776 North Cullen Street  Rensselaer IN 47978 ,40.943281,-87.155121,REN,"Rensselaer, IN"
-8755031.558,4270009.79,TRAIN,Union Station,510 West Martin Street,,Raleigh,NC,27603,Union Station 510 West Martin Street  Raleigh NC 27603 ,35.7772979,-78.6475134,RGH,"Raleigh, NC"
-8232218.778,5149205.999,TRAIN,,455 Rhinecliff Road,,Rhinecliff,NY,12574, 455 Rhinecliff Road  Rhinecliff NY 12574 ,41.9212641,-73.9514219,RHI,"Rhinecliff, NY"
-13620400.92,4570495.541,TRAIN,,1700 Nevin Avenue,,Richmond,CA,94801, 1700 Nevin Avenue  Richmond CA 94801 ,37.9372561,-122.3530529,RIC,"Richmond, CA"
-13065568.64,4025536.227,TRAIN,,4066 Vine Street,,Riverside,CA,92507, 4066 Vine Street  Riverside CA 92507 ,33.9761238,-117.369216,RIV,"Riverside, CA"
-8587853.141,4733790.572,TRAIN,,307 South Stonestreet Avenue,,Rockville,MD,20850, 307 South Stonestreet Avenue  Rockville MD 20850 ,39.0845077,-77.1460784,RKV,"Rockville, MD"
-13496075.85,4691779.766,TRAIN,,Rocklin Rd. and Railroad Ave.,,Rocklin,CA,95677, Rocklin Rd. and Railroad Ave.  Rocklin CA 95677 ,38.7912937,-121.2371932,RLN,"Rocklin, CA"
-8660417.866,4292094.737,TRAIN,,101 Coastline Street,,Rocky Mount,NC,27804, 101 Coastline Street  Rocky Mount NC 27804 ,35.9379504,-77.7976305,RMT,"Rocky Mount, NC"
-8899080.256,4477254.997,TRAIN,,55 Norfolk Avenue SW,,Roanoke,VA,24011, 55 Norfolk Avenue SW  Roanoke VA 24011 ,37.2732122,-79.9413831,RNK,"Roanoke, VA"
-13337425.97,4797663.689,TRAIN,,280 North Center Street,,Reno,NV,89501, 280 North Center Street  Reno NV 89501 ,39.5287411,-119.8114917,RNO,"Reno, NV"
-8639289.696,5336879.145,TRAIN,Louise M. Slaughter Station,320 Central Avenue,,Rochester,NY,14605,Louise M. Slaughter Station 320 Central Avenue  Rochester NY 14605 ,43.1635068,-77.6081859,ROC,"Rochester, NY"
-8399051.359,5342377.12,TRAIN,,6599 Martin Street,,Rome,NY,13440, 6599 Martin Street  Rome NY 13440 ,43.1995241,-75.4499945,ROM,"Rome, NY"
-9255883.31,5234429.619,TRAIN,,202 South Sherman Drive,,Royal Oak,MI,48069, 202 South Sherman Drive  Royal Oak MI 48069 ,42.4884066,-83.1475432,ROY,"Royal Oak, MI"
-8089082.03,5453442.315,TRAIN,,South Main and Salisbury Streets,,Randolph,VT,5060, South Main and Salisbury Streets  Randolph VT 5060 ,43.9227641,-72.664886,RPH,"Randolph, VT"
-8167632.882,5620715.337,TRAIN,,68 Pratt Street,,Rouses Point,NY,12979, 68 Pratt Street  Rouses Point NY 12979 ,44.9949627,-73.3715468,RSP,"Rouses Point, NY"
-13501529.06,4685927.234,TRAIN,,201 Pacific Street,,Roseville,CA,95678, 201 Pacific Street  Roseville CA 95678 ,38.7495518,-121.286743,RSV,"Roseville, CA"
-7920147.399,5192526.187,TRAIN,,50 University Avenue,,Westwood,MA,2090, 50 University Avenue  Westwood MA 2090 ,42.2111905,-71.148665,RTE,"Route 128, MA"
-9813829.656,4911226.642,TRAIN,,East Grove Ave and North Kentucky Ave.,,Rantoul,IL,61866, East Grove Ave and North Kentucky Ave.  Rantoul IL 61866 ,40.311981,-88.158406,RTL,"Rantoul, IL"
-8124267.792,5404634.704,TRAIN,,25 Evelyn Street,,Rutland,VT,5701, 25 Evelyn Street  Rutland VT 5701 ,43.6057409,-72.9818106,RUD,"Rutland, VT"
-11131678.15,6168607.4,TRAIN,,201 West Dewey Street,,Rugby,ND,58368, 201 West Dewey Street  Rugby ND 58368 ,48.3697187,-99.9978329,RUG,"Rugby, ND"
-8619414.108,4513833.586,TRAIN,Main Street Station,1500 East Main Street,,Richmond,VA,23219,Main Street Station 1500 East Main Street  Richmond VA 23219 ,37.5351005,-77.4287069,RVM,"Richmond, VA"
-8626920.496,4525559.599,TRAIN,Staples Mill Road Station,7519 Staples Mill Road,,Richmond,VA,23228,Staples Mill Road Station 7519 Staples Mill Road  Richmond VA 23228 ,37.6173409,-77.4976187,RVR,"Richmond, VA"
-8135917.724,5592031.042,TRAIN,,40 Federal Street,,St Albans,VT,5478, 40 Federal Street  St Albans VT 5478 ,44.8122767,-73.0860737,SAB,"St. Albans, VT"
-13525397.97,4662258.407,TRAIN,Sacramento Valley Station,401 I Street,,Sacramento,CA,95814,Sacramento Valley Station 401 I Street  Sacramento CA 95814 ,38.5841699,-121.5007494,SAC,"Sacramento, CA"
-8957470.453,4254966.219,TRAIN,,215 Depot Street,,Salisbury,NC,28144, 215 Depot Street  Salisbury NC 28144 ,35.6673907,-80.4660691,SAL,"Salisbury, NC"
-13043258.86,3857691.091,TRAIN,Santa Fe Depot,1050 Kettner Boulevard,,San Diego,CA,92101,Santa Fe Depot 1050 Kettner Boulevard  San Diego CA 92101 ,32.7168533,-117.1695457,SAN,"San Diego, CA"
-7842362.331,5387806.11,TRAIN,,138 Main Street,,Saco,ME,4072, 138 Main Street  Saco ME 4072 ,43.496057,-70.4492051,SAO,"Saco, ME"
-8216494.792,5324586.207,TRAIN,,26 Station Lane,,Saratoga Springs,NY,12866, 26 Station Lane  Saratoga Springs NY 12866 ,43.0828733,-73.8101548,SAR,"Saratoga Springs, NY"
-10962537.6,3429129.577,TRAIN,,350 Hoefgen Street,,San Antonio,TX,78205, 350 Hoefgen Street  San Antonio TX 78205 ,29.4206819,-98.477949,SAS,"San Antonio, TX"
-9033383.781,3774265.547,TRAIN,,2611 Seaboard Coastline Drive,,Savannah,GA,31401, 2611 Seaboard Coastline Drive  Savannah GA 31401 ,32.0836178,-81.1483036,SAV,"Savannah, GA"
-13324141.26,4084491.104,TRAIN,Amtrak Station,209 State Street,,Santa Barbara,CA,93101,Amtrak Station 209 State Street  Santa Barbara CA 93101 ,34.413654,-119.692914,SBA,"Santa Barbara, CA"
-9065214.244,3185658.196,TRAIN,,601 East Center Avenue,,Sebring,FL,33870, 601 East Center Avenue  Sebring FL 33870 ,27.4965828,-81.4343151,SBG,"Sebring, FL"
-12451826.67,6191578.683,TRAIN,,230 West Central Avenue,,Shelby,MT,59474, 230 West Central Avenue  Shelby MT 59474 ,48.506853,-111.8571231,SBY,"Shelby, MT"
-8822739.822,5334501.362,TRAIN,,5 Great Western St.,,St. Catharines,ON,L2S 2K3, 5 Great Western St.  St. Catharines ON L2S 2K3 ,43.1477784,-79.2562594,SCA,"St. Catharines, ON"
-13573919.01,4488456.682,TRAIN,Transit Center,1001 Railroad Avenue,,Santa Clara,CA,95050,Transit Center 1001 Railroad Avenue  Santa Clara CA 95050 ,37.3531073,-121.936245,SCC,"Santa Clara, CA"
-10480629.99,5711350.33,TRAIN,,555 East Saint Germain Street,,St. Cloud,MN,56304, 555 East Saint Germain Street  St. Cloud MN 56304 ,45.567895,-94.1490011,SCD,"St. Cloud, MN"
-10109507.59,3471029.731,TRAIN,,145 Burlington Court,,Schriever,LA,70395, 145 Burlington Court  Schriever LA 70395 ,29.7443003,-90.8133297,SCH,"Schriever, LA"
-9994550.036,3539383.098,TRAIN,,1827 Front Street,,Slidell,LA,70458, 1827 Front Street  Slidell LA 70458 ,30.2783569,-89.7826131,SDL,"Slidell, LA"
-8231222.364,5283945.159,TRAIN,,332 Erie Boulevard,,Schenectady,NY,12305, 332 Erie Boulevard  Schenectady NY 12305 ,42.8144886,-73.9425836,SDY,"Schenectady, NY"
-13617732.89,6040309.427,TRAIN,King Street Station,303 South Jackson Street,,Seattle,WA,98104,King Street Station 303 South Jackson Street  Seattle WA 98104 ,47.5983889,-122.3299086,SEA,"Seattle, WA"
-10378172.86,4680446.107,TRAIN,,Pacific Street and North Osage Avenue,,Sedalia,MO,65301, Pacific Street and North Osage Avenue  Sedalia MO 65301 ,38.7114539,-93.2279101,SED,"Sedalia, MO"
-9049303.572,3351301.158,TRAIN,Auto Train Station,600 South Persimmon Avenue,,Sanford,FL,32771,Auto Train Station 600 South Persimmon Avenue  Sanford FL 32771 ,28.8087842,-81.2914469,SFA,"Sanford, FL"
-13213086.47,4065142.439,TRAIN,,5050 Los Angeles Avenue,,Simi Valley,CA,93063, 5050 Los Angeles Avenue  Simi Valley CA 93063 ,34.2706008,-118.6954854,SIM,"Simi Valley, CA"
-13570113.22,4485196.208,TRAIN,Diridon Station,65 Cahill Street,,San Jose,CA,95110,Diridon Station 65 Cahill Street  San Jose CA 95110 ,37.3299054,-121.9025016,SJC,"San Jose, CA"
-9627409.325,5177334.324,TRAIN,,410 1/2 Vine Street,,St. Joseph,MI,49085, 410 1/2 Vine Street  St. Joseph MI 49085 ,42.1090996,-86.4845309,SJM,"St. Joseph-Benton Harbor, MI"
-13501456.25,4571725.844,TRAIN,San Joaquin Street Station,735 South San Joaquin Street,,Stockton,CA,95203,San Joaquin Street Station 735 South San Joaquin Street  Stockton CA 95203 ,37.9453315,-121.2856017,SKN,"Stockton, CA"
-13500717.98,4573359.212,TRAIN,Robert J. Cabral Station,949 East Channel St.,,Stockton,CA,95202,Robert J. Cabral Station 949 East Channel St.  Stockton CA 95202 ,37.9570518,-121.27889,SKT,"Stockton, CA"
-9208111.194,5077560.633,TRAIN,,1200 North Depot Street,,Sandusky,OH,44870, 1200 North Depot Street  Sandusky OH 44870 ,41.44068,-82.71855,SKY,"Sandusky, OH"
-12457581.73,4977250.91,TRAIN,Amtrak Station,340 South 600 West,,Salt Lake City,UT,84101,Amtrak Station 340 South 600 West  Salt Lake City UT 84101 ,40.76234,-111.909052,SLC,"Salt Lake City, UT"
-13695452.76,5610875.519,TRAIN,,500 13th Street SE,,Salem,OR,97301, 500 13th Street SE  Salem OR 97301 ,44.9323444,-123.0281966,SLM,"Salem, OR"
-13431221.29,4201511.825,TRAIN,Amtrak Station,1011 Railroad Avenue,,San Luis Obispo,CA,93401,Amtrak Station 1011 Railroad Avenue  San Luis Obispo CA 93401 ,35.2765252,-120.6545691,SLO,"San Luis Obispo, CA"
-8182793.938,5700408.849,TRAIN,,329 avenue St-Denis,,St-Lambert,QC,J4P 2G5, 329 avenue St-Denis  St-Lambert QC J4P 2G5 ,45.4989308,-73.5073671,SLQ,"St-Lambert, QC"
-10902748.55,3487694.701,TRAIN,,338 South Guadalupe Street,,San Marcos,TX,78666, 338 South Guadalupe Street  San Marcos TX 78666 ,29.87641,-97.941136,SMC,"San Marcos, TX"
-9774936.411,5130308.761,TRAIN,,Archer Avenue and South Center Avenue,,Summit,IL,60501, Archer Avenue and South Center Avenue  Summit IL 60501 ,41.7915961,-87.8087429,SMT,"Summit, IL"
-13119738.82,3995501.075,TRAIN,,1000 East Santa Ana Boulevard,,Santa Ana,CA,92701, 1000 East Santa Ana Boulevard  Santa Ana CA 92701 ,33.7514333,-117.8565075,SNA,"Santa Ana, CA"
-13058964.16,4042790.967,TRAIN,,1170 West Third Street,,San Bernardino,CA,92410, 1170 West Third Street  San Bernardino CA 92410 ,34.1042558,-117.3095384,SNB,"San Bernardino, CA"
-13098277.09,3962036.809,TRAIN,,26701 Verdugo Street,,San Juan Capistrano,CA,92675, 26701 Verdugo Street  San Juan Capistrano CA 92675 ,33.5011576,-117.6639557,SNC,"San Juan Capistrano, CA"
-11398977.24,3521552.6,TRAIN,,201 West Downie Street,,Sanderson,TX,79848, 201 West Downie Street  Sanderson TX 79848 ,30.1403459,-102.3994438,SND,"Sanderson, TX"
-13093370.12,3951138.851,TRAIN,,615 Avenida Victoria,,San Clemente,CA,92672, 615 Avenida Victoria  San Clemente CA 92672 ,33.4196518,-117.619733,SNP,"San Clemente Pier, CA"
-13542768.35,4394478.285,TRAIN,Amtrak Station,11 Station Place,,Salinas,CA,93901,Amtrak Station 11 Station Place  Salinas CA 93901 ,36.6792767,-121.6568598,SNS,"Salinas, CA"
-9605463.901,5112921.613,TRAIN,,2702 West Washington Street,,South Bend,IN,46628, 2702 West Washington Street  South Bend IN 46628 ,41.6782788,-86.2874769,SOB,"South Bend, IN"
-13054564.36,3894367.141,TRAIN,,105 North Cedros Avenue,,Solana Beach,CA,92075, 105 North Cedros Avenue  Solana Beach CA 92075 ,32.9937989,-117.2718713,SOL,"Solana Beach, CA"
-8837688.416,4187698.789,TRAIN,,235 Northwest Broad Street,,Southern Pines,NC,28387, 235 Northwest Broad Street  Southern Pines NC 28387 ,35.1749336,-79.3904395,SOP,"Southern Pines, NC"
-9121176.273,4157596.749,TRAIN,,290 Magnolia Street,,Spartanburg,SC,29303, 290 Magnolia Street  Spartanburg SC 29303 ,34.953905,-81.937438,SPB,"Spartanburg, SC"
-8081005.34,5176870.315,TRAIN,,55 Frank B. Murray Street,,Springfield,MA,1103, 55 Frank B. Murray Street  Springfield MA 1103 ,42.1060508,-72.5928997,SPG,"Springfield, MA"
-9979947.099,4837258.91,TRAIN,,100 North Third Street,,Springfield,IL,62701, 100 North Third Street  Springfield IL 62701 ,39.8022309,-89.6514923,SPI,"Springfield, IL"
-13070630.23,6049935.119,TRAIN,Amtrak Station,221 West 1st Avenue,,Spokane,WA,99201,Amtrak Station 221 West 1st Avenue  Spokane WA 99201 ,47.6563388,-117.4153515,SPK,"Spokane, WA"
-10552568.91,5837358.821,TRAIN,,First Avenue N.E. and Fourth Street N.E.,,Staples,MN,56479, First Avenue N.E. and Fourth Street N.E.  Staples MN 56479 ,46.3545976,-94.7949787,SPL,"Staples, MN"
-9235482.971,4681826.812,TRAIN,,Main Street & US 23,,South Shore,KY,41174, Main Street & US 23  South Shore KY 41174 ,38.721281,-82.963751,SPM,"South Shore-South Portsmouth, KY"
-12973796.52,6152935.035,TRAIN,,450 Railroad Avenue,,Sandpoint,ID,83864, 450 Railroad Avenue  Sandpoint ID 83864 ,48.2764294,-116.5456353,SPT,"Sandpoint, ID"
-8714101.037,4236523.391,TRAIN,,500 East Railroad Street,,Selma,NC,27576, 500 East Railroad Street  Selma NC 27576 ,35.5326438,-78.2801072,SSM,"Selma-Smithfield, NC"
-8802230.161,4600304.367,TRAIN,,1 Middlebrook Avenue,,Staunton,VA,24401, 1 Middlebrook Avenue  Staunton VA 24401 ,38.1476654,-79.0727412,STA,"Staunton, VA"
-10041461.03,4667983.819,TRAIN,Gateway Station,430 South 15th Street,,St. Louis,MO,63103,Gateway Station 430 South 15th Street  St. Louis MO 63103 ,38.624216,-90.2036115,STL,"St. Louis, MO"
-8186675.95,5019297.046,TRAIN,,Washington Blvd and South State Street,,Stamford,CT,6902, Washington Blvd and South State Street  Stamford CT 6902 ,41.0468938,-73.5429146,STM,"Stamford, CT"
-11397934.74,6160227.489,TRAIN,,Main Street & Railroad Avenue,,Stanley,ND,58784, Main Street & Railroad Avenue  Stanley ND 58784 ,48.3190484,-102.3906279,STN,"Stanley, ND"
-8117649.608,5057472.456,TRAIN,State Street Station,259 State Street,,New Haven,CT,6519,State Street Station 259 State Street  New Haven CT 6519 ,41.3052158,-72.9220602,STS,"New Haven, CT"
-13619934.14,6147317.443,TRAIN,,27111 Florence Way,,Stanwood,WA,98292, 27111 Florence Way  Stanwood WA 98292 ,48.2428351,-122.3502633,STW,"Stanwood, WA"
-13585554.47,4613868.213,TRAIN,,177 Main Street,,Suisun City,CA,94585, 177 Main Street  Suisun City CA 94585 ,38.2434425,-122.0412006,SUI,"Suisun-Fairfield, CA"
-9785685.212,5269192.053,TRAIN,,9900 East Exploration Court,,Sturtevant,WI,53177, 9900 East Exploration Court  Sturtevant WI 53177 ,42.7182824,-87.9059828,SVT,"Sturtevant, WI"
-8479121.713,5323631.815,TRAIN,Regional Transportation Center,1 Walsh Circle,,Syracuse,NY,13208,Regional Transportation Center 1 Walsh Circle  Syracuse NY 13208 ,43.076548,-76.169244,SYR,"Syracuse, NY"
-13627789.82,5981647.193,TRAIN,Amtrak Station,1001 Puyallup Avenue,,Tacoma,WA,98421,Amtrak Station 1001 Puyallup Avenue  Tacoma WA 98421 ,47.2419834,-122.4205494,TAC,"Tacoma, WA"
-10843383.42,3576729.525,TRAIN,,118 East First Street,,Taylor,TX,76574, 118 East First Street  Taylor TX 76574 ,30.5676748,-97.4079523,TAY,"Taylor, TX"
-9276425.261,4106742.439,TRAIN,,47 North Alexander Street,,Toccoa,GA,30577, 47 North Alexander Street  Toccoa GA 30577 ,34.5800208,-83.331616,TCA,"Toccoa, GA"
-9747160.56,3920972.368,TRAIN,,2105 Greensboro Avenue,,Tuscaloosa,AL,35401, 2105 Greensboro Avenue  Tuscaloosa AL 35401 ,33.1933328,-87.5601723,TCL,"Tuscaloosa, AL"
-9025645.996,4573352.208,TRAIN,,Hwy 25 & Hwy 2,,Thurmond,WV,25936, Hwy 25 & Hwy 2  Thurmond WV 25936 ,37.957115,-81.078813,THN,"Thurmond, WV"
-10075008.12,5463278.232,TRAIN,,North Superior Avenue and Washington Street,,Tomah,WI,54660, North Superior Avenue and Washington Street  Tomah WI 54660 ,43.9854211,-90.5046869,TOH,"Tomah, WI"
-9299822.343,5106959.484,TRAIN,,415 Emerald Avenue,,Toledo,OH,43604, 415 Emerald Avenue  Toledo OH 43604 ,41.6381416,-83.5412899,TOL,"Toledo, OH"
-10649370.6,4729039.999,TRAIN,,500 SE Holliday Place,,Topeka,KS,66607, 500 SE Holliday Place  Topeka KS 66607 ,39.0514983,-95.6646219,TOP,"Topeka, KS"
-9178378.89,3242986.089,TRAIN,Union Station,601 North Nebraska Avenue,,Tampa,FL,33602,Union Station 601 North Nebraska Avenue  Tampa FL 33602 ,27.9527257,-82.450219,TPA,"Tampa, FL"
-10836484.84,3645208.348,TRAIN,,315 West Avenue B,,Temple,TX,76501, 315 West Avenue B  Temple TX 76501 ,31.0956829,-97.3451996,TPL,"Temple, TX"
-8321626.38,4897820.774,TRAIN,,72 South Clinton Avenue,,Trenton,NJ,8609, 72 South Clinton Avenue  Trenton NJ 8609 ,40.2186223,-74.7539603,TRE,"Trenton, NJ"
-11633776.31,4463205.53,TRAIN,,110 West Pine Street,,Trinidad,CO,81082, 110 West Pine Street  Trinidad CO 81082 ,37.1727341,-104.5092538,TRI,"Trinidad, CO"
-13447174.29,4512853.439,TRAIN,,3800 Santa Fe Avenue,,Denair,CA,95316, 3800 Santa Fe Avenue  Denair CA 95316 ,37.5272682,-120.7980794,TRK,"Turlock-Denair, CA"
-9260783.151,5242602.475,TRAIN,,1201 Doyle Drive,,Troy,MI,48084, 1201 Doyle Drive  Troy MI 48084 ,42.5426166,-83.191521,TRM,"Troy, MI"
-13378977.54,4768709.749,TRAIN,,10065 Donner Pass Road,,Truckee,CA,96161, 10065 Donner Pass Road  Truckee CA 96161 ,39.3275289,-120.185436,TRU,"Truckee, CA"
-13607724.48,6017662.593,TRAIN,,7301 Longacres Way,,Tukwila,WA,98188, 7301 Longacres Way  Tukwila WA 98188 ,47.4602056,-122.2407341,TUK,"Tukwila, WA"
-12352765.52,3792616.201,TRAIN,,400 North Toole Avenue,,Tucson,AZ,85701, 400 North Toole Avenue  Tucson AZ 85701 ,32.2231404,-110.9667069,TUS,"Tucson, AZ"
-8836626.381,5410735.476,TRAIN,Union Station,65 Front Street West,,Toronto,ON,M5J 1E7,Union Station 65 Front Street West  Toronto ON M5J 1E7 ,43.6453197,-79.3804062,TWO,"Toronto, ON"
-10468828.76,3951195.288,TRAIN,,100 East Front Street,,Texarkana,AR,71854, 100 East Front Street  Texarkana AR 71854 ,33.4199425,-94.0428422,TXA,"Texarkana, AR"
-8709689.59,4963452.279,TRAIN,,Pennsylvania Avenue and West 10th Street,,Tyrone,PA,16686, Pennsylvania Avenue and West 10th Street  Tyrone PA 16686 ,40.67048,-78.2383477,TYR,"Tyrone, PA"
-8373834.591,5327799.983,TRAIN,,321 Main Street,,Utica,NY,13501, 321 Main Street  Utica NY 13501 ,43.1041839,-75.2232219,UCA,"Utica, NY"
-13703245.8,6321441.491,TRAIN,Pacific Central Station,1150 Station Street,,Vancouver,BC,V6A 4C7,Pacific Central Station 1150 Station Street  Vancouver BC V6A 4C7 ,49.2737414,-123.0982041,VAC,"Vancouver, BC"
-13657405.22,5721079.346,TRAIN,,1301 West 11th Street,,Vancouver,WA,98660, 1301 West 11th Street  Vancouver WA 98660 ,45.6288834,-122.6855177,VAN,"Vancouver, WA"
-13280407.5,4066048.365,TRAIN,,39 East Harbor Blvd,,Ventura,CA,93001, 39 East Harbor Blvd  Ventura CA 93001 ,34.2768163,-119.3001651,VEC,"Ventura, CA"
-13185595.34,4057209.712,TRAIN,,7724 Van Nuys Boulevard,,Van Nuys,CA,91405, 7724 Van Nuys Boulevard  Van Nuys CA 91405 ,34.2115259,-118.4482428,VNC,"Van Nuys, CA"
-13056993.48,4101165.652,TRAIN,Amtrak Station,16858 South D Street,,Victorville,CA,92395,Amtrak Station 16858 South D Street  Victorville CA 92395 ,34.5373956,-117.2937236,VRV,"Victorville, CA"
-8098694.14,5517434.521,TRAIN,,US Highway 2 and Park Row,,Waterbury,VT,5676, US Highway 2 and Park Row  Waterbury VT 5676 ,44.3346025,-72.7531811,WAB,"Waterbury-Stowe, VT"
-13284013.26,4244912.52,TRAIN,,700 G Street,,Wasco,CA,93280, 700 G Street  Wasco CA 93280 ,35.5942252,-119.3321207,WAC,"Wasco, CA"
-10131490.03,4659049.606,TRAIN,,301 West Front Street,,Washington,MO,63090, 301 West Front Street  Washington MO 63090 ,38.561565,-91.012534,WAH,"Washington, MO"
-10435190.05,4687745.294,TRAIN,,100 South Holden Street,,Warrensburg,MO,64093, 100 South Holden Street  Warrensburg MO 64093 ,38.7628093,-93.7409105,WAR,"Warrensburg, MO"
-8572315.939,4706928.539,TRAIN,Union Station,50 Massachusetts Avenue NE,,Washington,DC,20002,Union Station 50 Massachusetts Avenue NE  Washington DC 20002 ,38.8978594,-77.0062742,WAS,"Washington, DC"
-8539158.518,4477706.732,TRAIN,,468 North Boundary Street,,Williamsburg,VA,23185, 468 North Boundary Street  Williamsburg VA 23185 ,37.2765874,-76.7084661,WBG,"Williamsburg, VA"
-8599191.811,4672932.274,TRAIN,,1040 Express Way,,Woodbridge,VA,22194, 1040 Express Way  Woodbridge VA 22194 ,38.6590664,-77.2483339,WDB,"Woodbridge, VA"
-9993980.861,5407825.578,TRAIN,,100 LaCrosse Street,,Wisconsin Dells,WI,53965, 100 LaCrosse Street  Wisconsin Dells WI 53965 ,43.6266116,-89.7775673,WDL,"Wisconsin Dells, WI"
-7860513.313,5360935.918,TRAIN,,696 Sanford Road,,Wells,ME,4090, 696 Sanford Road  Wells ME 4090 ,43.3239902,-70.6128306,WEM,"Wells, ME"
-13392465.72,6011157.213,TRAIN,Amtrak Station,1 Kittitas Street,,Wenatchee,WA,98801,Amtrak Station 1 Kittitas Street  Wenatchee WA 98801 ,47.421646,-120.306549,WEN,"Wenatchee, WA"
-8106866.643,5079981.203,TRAIN,,343 North Cherry St.,,Wallingford,CT,6492, 343 North Cherry St.  Wallingford CT 6492 ,41.46161,-72.8226065,WFD,"Wallingford, CT"
-12727779.51,6175921.011,TRAIN,,500 Depot Street,,Whitefish,MT,59937, 500 Depot Street  Whitefish MT 59937 ,48.4135492,-114.3355076,WFH,"Whitefish, MT"
-12688104.01,6189809.565,TRAIN,,12544 US Highway 2 East,,West Glacier,MT,59936, 12544 US Highway 2 East  West Glacier MT 59936 ,48.4960802,-113.979401,WGL,"West Glacier, MT"
-8171207.786,5396788.04,TRAIN,,154 Main Street,,Whitehall,NY,12887, 154 Main Street  Whitehall NY 12887 ,43.5544071,-73.4029881,WHL,"Whitehall, NY"
-13465890.92,5725660.025,TRAIN,,1 Railroad Avenue,,Wishram,WA,98673, 1 Railroad Avenue  Wishram WA 98673 ,45.6575459,-120.9666805,WIH,"Wishram, WA"
-8410309.634,4827836.348,TRAIN,,100 South French Street,,Wilmington,DE,19801, 100 South French Street  Wilmington DE 19801 ,39.7369407,-75.5510483,WIL,"Wilmington, DE"
-10201327.06,5472317.611,TRAIN,,65 East Mark Street,,Winona,MN,55987, 65 East Mark Street  Winona MN 55987 ,44.0442868,-91.6400596,WIN,"Winona, MN"
-11779538.9,4858326.564,TRAIN,,205 Fraser Avenue,,Fraser,CO,80442, 205 Fraser Avenue  Fraser CO 80442 ,39.9475842,-105.8176206,WIP,"Fraser-Winter Park, CO"
-8672682.382,4262592.718,TRAIN,,401 East Nash Street,,Wilson,NC,27893, 401 East Nash Street  Wilson NC 27893 ,35.8057105,-77.8579381,WLN,"Wilson, NC"
-12322510.13,4166826.592,TRAIN,,303 East Second Street (Route 66),,Winslow,AZ,86047, 303 East Second Street (Route 66)  Winslow AZ 86047 ,35.0212337,-110.6950188,WLO,"Winslow, AZ"
-7996054.621,5068715.82,TRAIN,,14 Railroad Avenue,,Westerly,RI,2891, 14 Railroad Avenue  Westerly RI 2891 ,41.3813663,-71.8296272,WLY,"Westerly, RI"
-8086498.734,5138838.696,TRAIN,,41 Central Street,,Windsor,CT,6095, 41 Central Street  Windsor CT 6095 ,41.8519014,-72.6415476,WND,"Windsor, CT"
-8084700.701,5148100.449,TRAIN,,South Main Street at Stanton Road,,Windsor Locks,CT,6096, South Main Street at Stanton Road  Windsor Locks CT 6096 ,41.9142789,-72.6263365,WNL,"Windsor Locks, CT"
-8057859.793,5385307.725,TRAIN,,26 Depot Avenue,,Windsor,VT,5089, 26 Depot Avenue  Windsor VT 5089 ,43.4801247,-72.3849189,WNM,"Windsor-Mt. Ascutney, VT"
-13105891.1,5007777.556,TRAIN,,209 Railroad Street,,Winnemucca,NV,89445, 209 Railroad Street  Winnemucca NV 89445 ,40.9688525,-117.7323663,WNN,"Winnemucca, NV"
-10125261.57,4309936.195,TRAIN,,109 Southwest Front Street,,Walnut Ridge,AR,72476, 109 Southwest Front Street  Walnut Ridge AR 72476 ,36.0675103,-90.9567383,WNR,"Walnut Ridge, AR"
-7919694.219,5238796.299,TRAIN,,100 Atlantic Avenue,,Woburn,MA,1801, 100 Atlantic Avenue  Woburn MA 1801 ,42.5173151,-71.144341,WOB,"Woburn, MA"
-7992162.005,5200229.71,TRAIN,Union Station,2 Washington Square,,Worcester,MA,1604,Union Station 2 Washington Square  Worcester MA 1604 ,42.2612345,-71.7949679,WOR,"Worcester, MA"
-8912481.852,3087605.456,TRAIN,,209 South Tamarind Avenue,,West Palm Beach,FL,33401, 209 South Tamarind Avenue  West Palm Beach FL 33401 ,26.7122652,-80.0622937,WPB,"West Palm Beach, FL"
-9056062.781,3324465.707,TRAIN,,148 West Morse Boulevard,,Winter Park,FL,32789, 148 West Morse Boulevard  Winter Park FL 32789 ,28.5970294,-81.3518735,WPK,"Winter Park, FL"
-11773511.73,4849620.641,TRAIN,Winter Park Resort Trn Platform,85 Parsenn Road,,Winter Park,CO,80402,Winter Park Resort Trn Platform 85 Parsenn Road  Winter Park CO 80402 ,39.887579,-105.7632724,WPR,"Winter Park, CO"
-11760096.87,6122120.59,TRAIN,,320 Front Street,,Wolf Point,MT,59201, 320 Front Street  Wolf Point MT 59201 ,48.0915594,-105.6429165,WPT,"Wolf Point, MT"
-8050322.015,5411098.272,TRAIN,,102 Railroad Row,,White River Junction,VT,5001, 102 Railroad Row  White River Junction VT 5001 ,43.6474128,-72.31739,WRJ,"White River Junction, VT"
-8176614.135,5494472.712,TRAIN,,6705 Main Street,,Westport,NY,12993, 6705 Main Street  Westport NY 12993 ,44.1871804,-73.4518436,WSP,"Westport, NY"
-8939401.194,4549302.19,TRAIN,,315 West Main Street,,White Sulphur Springs,WV,24986, 315 West Main Street  White Sulphur Springs WV 24986 ,37.7865747,-80.3038567,WSS,"White Sulphur Springs, WV"
-9098685.355,3249245.01,TRAIN,,1800 7th Street SW,,Winter Haven,FL,33880, 1800 7th Street SW  Winter Haven FL 33880 ,28.0026887,-81.7347496,WTH,"Winter Haven, FL"
-9464862.108,5076245.765,TRAIN,,485 West Van Vleek Street,,Waterloo,IN,46793, 485 West Van Vleek Street  Waterloo IN 46793 ,41.4317472,-85.0243002,WTI,"Waterloo, IN"
-11535029.95,6130679.259,TRAIN,,1 South Main Street,,Williston,ND,58801, 1 South Main Street  Williston ND 58801 ,48.1428666,-103.6211462,WTN,"Williston, ND"
-10064978.01,3875209.844,TRAIN,,West Broadway (SR149) & North Water Street,,Yazoo City,MS,39194, West Broadway (SR149) & North Water Street  Yazoo City MS 39194 ,32.8484289,-90.4151631,YAZ,"Yazoo City, MS"
-8999836.199,3854002.695,TRAIN,,15 Wall Street,,Yemassee,SC,29945, 15 Wall Street  Yemassee SC 29945 ,32.6881343,-80.8469904,YEM,"Yemassee, SC"
-8226762.445,5002846.475,TRAIN,,5 Buena Vista Avenue,,Yonkers,NY,10701, 5 Buena Vista Avenue  Yonkers NY 10701 ,40.9355917,-73.9023392,YNY,"Yonkers, NY"
-12758948.28,3858613.34,TRAIN,,281 Gila Street,,Yuma,AZ,85364, 281 Gila Street  Yuma AZ 85364 ,32.7229927,-114.6155088,YUM,"Yuma, AZ"
